{
"type": "FeatureCollection",
"name": "COMNAP",
"crs": { "type": "name", "properties": { "name": "urn:ogc:def:crs:OGC:1.3:CRS84" } },
"features": [
{"type":"Feature","properties":{"objectid":164,"fac_id":45.0,"name_eng":"Gondwana","name_off":"Gondwana Station","operator_1":"Germany","iso_1":"DE","operator_2":null,"iso_2":null,"un_locode":null,"scar_id":0.0,"fac_type":"Station","fac_seas":"Seasonal","fac_stat":"Open","year_est":1983.0,"year_cls":null,"lat_dd":-74.635501,"lon_dd":164.221215,"lat_ddm":"74° 38.1301' S","lon_ddm":"164° 13.2729' E","elev_m":20.0,"elev_datum":"WGS84","avg_pop_sm":null,"avg_pop_wn":0.0,"peak_pop":20.0,"max_cap":"20","date_mod":"2017-08-31"},"geometry":{"type":"Point","coordinates":[164.221215,-74.635501]}},
{"type":"Feature","properties":{"objectid":169,"fac_id":51.0,"name_eng":"Browning Pass","name_off":"Browning Pass","operator_1":"Italy","iso_1":"IT","operator_2":null,"iso_2":null,"un_locode":null,"scar_id":18348.0,"fac_type":"Airfield Camp","fac_seas":"Seasonal","fac_stat":"Open","year_est":1997.0,"year_cls":null,"lat_dd":-74.622906,"lon_dd":163.915171,"lat_ddm":"74° 37.3744' S","lon_ddm":"163° 54.9103' E","elev_m":63.0,"elev_datum":"MSL","avg_pop_sm":null,"avg_pop_wn":0.0,"peak_pop":2.0,"max_cap":null,"date_mod":"2016-12-21"},"geometry":{"type":"Point","coordinates":[163.915171,-74.622906]}},
{"type":"Feature","properties":{"objectid":171,"fac_id":52.0,"name_eng":"Enigma Lake","name_off":"Enigma Lake","operator_1":"Italy","iso_1":"IT","operator_2":null,"iso_2":null,"un_locode":null,"scar_id":18355.0,"fac_type":"Airfield Camp","fac_seas":"Seasonal","fac_stat":"Open","year_est":2005.0,"year_cls":null,"lat_dd":-74.719164,"lon_dd":164.027711,"lat_ddm":"74° 43.1498' S","lon_ddm":"164° 1.6627' E","elev_m":250.0,"elev_datum":"MSL","avg_pop_sm":null,"avg_pop_wn":0.0,"peak_pop":0.0,"max_cap":null,"date_mod":"2016-12-21"},"geometry":{"type":"Point","coordinates":[164.027711,-74.719164]}},
{"type":"Feature","properties":{"objectid":172,"fac_id":55.0,"name_eng":"Mario Zucchelli","name_off":"Stazione Mario Zucchelli","operator_1":"Italy","iso_1":"IT","operator_2":null,"iso_2":null,"un_locode":"AQ-MZU","scar_id":17177.0,"fac_type":"Station","fac_seas":"Seasonal","fac_stat":"Open","year_est":1986.0,"year_cls":null,"lat_dd":-74.694807,"lon_dd":164.113268,"lat_ddm":"74° 41.6884' S","lon_ddm":"164° 6.7961' E","elev_m":15.0,"elev_datum":"MSL","avg_pop_sm":"120","avg_pop_wn":0.0,"peak_pop":120.0,"max_cap":"120","date_mod":"2017-11-19"},"geometry":{"type":"Point","coordinates":[164.113268,-74.694807]}},
{"type":"Feature","properties":{"objectid":181,"fac_id":61.0,"name_eng":"Scott Base","name_off":"Scott Base Station","operator_1":"New Zealand","iso_1":"NZ","operator_2":null,"iso_2":null,"un_locode":"AQ-SBA","scar_id":12898.0,"fac_type":"Station","fac_seas":"Year-Round","fac_stat":"Open","year_est":1957.0,"year_cls":null,"lat_dd":-77.849437,"lon_dd":166.767281,"lat_ddm":"77° 50.9662' S","lon_ddm":"166° 46.0369' E","elev_m":10.0,"elev_datum":null,"avg_pop_sm":"78","avg_pop_wn":11.0,"peak_pop":86.0,"max_cap":"86","date_mod":"2017-11-19"},"geometry":{"type":"Point","coordinates":[166.767281,-77.849437]}},
{"type":"Feature","properties":{"objectid":187,"fac_id":106.0,"name_eng":"Jang Bogo","name_off":"Jang Bogo","operator_1":"Republic of Korea","iso_1":"KR","operator_2":null,"iso_2":null,"un_locode":"AQ-JBS","scar_id":0.0,"fac_type":"Station","fac_seas":"Year-Round","fac_stat":"Open","year_est":2014.0,"year_cls":null,"lat_dd":-74.627363,"lon_dd":164.23585,"lat_ddm":"74° 37.6418' S","lon_ddm":"164° 14.151' E","elev_m":36.6,"elev_datum":"MSL","avg_pop_sm":"62","avg_pop_wn":23.0,"peak_pop":62.0,"max_cap":"62","date_mod":"2017-11-20"},"geometry":{"type":"Point","coordinates":[164.23585,-74.627363]}},
{"type":"Feature","properties":{"objectid":216,"fac_id":95.0,"name_eng":"Marble Point Refueling Facility","name_off":"Marble Point Refueling Facility","operator_1":"United States","iso_1":"US","operator_2":null,"iso_2":null,"un_locode":null,"scar_id":0.0,"fac_type":"Depot","fac_seas":"Seasonal","fac_stat":"Open","year_est":0.0,"year_cls":null,"lat_dd":-77.413666,"lon_dd":163.679166,"lat_ddm":"77° 24.82' S","lon_ddm":"163° 40.75' E","elev_m":0.0,"elev_datum":null,"avg_pop_sm":null,"avg_pop_wn":0.0,"peak_pop":0.0,"max_cap":null,"date_mod":"2017-10-02"},"geometry":{"type":"Point","coordinates":[163.679166,-77.413666]}},
{"type":"Feature","properties":{"objectid":217,"fac_id":1.0,"name_eng":"McMurdo","name_off":"McMurdo Station","operator_1":"United States","iso_1":"US","operator_2":null,"iso_2":null,"un_locode":"AQ-MCM","scar_id":9342.0,"fac_type":"Station","fac_seas":"Year-Round","fac_stat":"Open","year_est":1956.0,"year_cls":null,"lat_dd":-77.848209,"lon_dd":166.668422,"lat_ddm":"77° 50.8925' S","lon_ddm":"166° 40.1053' E","elev_m":10.0,"elev_datum":"MSL","avg_pop_sm":"1000","avg_pop_wn":153.0,"peak_pop":1200.0,"max_cap":"1200","date_mod":"2017-11-26"},"geometry":{"type":"Point","coordinates":[166.668422,-77.848209]}}
]
}
