{
"type": "FeatureCollection",
"name": "clipped_ADD_Contours_low_res_line_06028a72_a264_4318_8d37_c448b0c95226",
"crs": { "type": "name", "properties": { "name": "urn:ogc:def:crs:OGC:1.3:CRS84" } },
"features": [
{"type":"Feature","properties":{"SCAR_CODE":23090,"HEIGHT":2000,"SURFACE":"Ice","CERTAINTY":"Definite"},"geometry":{"type":"MultiLineString","coordinates":[[[161.777990384577265,-78.184472071731605],[161.787818802742009,-78.18774673390736],[161.93827967204885,-78.22923647187163],[161.979175432282091,-78.239744267865476]]]}},
{"type":"Feature","properties":{"SCAR_CODE":23090,"HEIGHT":2000,"SURFACE":"Ice","CERTAINTY":"Definite"},"geometry":{"type":"MultiLineString","coordinates":[[[161.607952611259662,-78.08893531723426],[161.591784085803596,-78.103883886122816],[161.648979938458382,-78.138732947931345]]]}},
{"type":"Feature","properties":{"SCAR_CODE":23160,"HEIGHT":2000,"SURFACE":"Ice free ground","CERTAINTY":"Definite"},"geometry":{"type":"MultiLineString","coordinates":[[[162.801086148692974,-78.008703994158566],[162.671174226611612,-77.991706621941361],[162.532863211363718,-77.986017505766341]]]}},
{"type":"Feature","properties":{"SCAR_CODE":23160,"HEIGHT":1000,"SURFACE":"Ice free ground","CERTAINTY":"Definite"},"geometry":{"type":"MultiLineString","coordinates":[[[163.198231833871404,-78.270045397177796],[163.194263030653019,-78.260426496971675],[163.258331172156204,-78.216792691260196],[163.347072986565166,-78.171302930905512],[163.40519659197281,-78.125775667634016],[163.418563736447311,-78.079123525007887],[163.418726855365236,-78.030199963124304],[163.41362446022751,-78.021765540498578]]]}},
{"type":"Feature","properties":{"SCAR_CODE":23090,"HEIGHT":1000,"SURFACE":"Ice","CERTAINTY":"Definite"},"geometry":{"type":"MultiLineString","coordinates":[[[162.995946230899676,-77.900534933240806],[162.958609841524634,-77.897276778089903],[162.79435598109967,-77.884210098780471]]]}},
{"type":"Feature","properties":{"SCAR_CODE":23090,"HEIGHT":1000,"SURFACE":"Ice","CERTAINTY":"Definite"},"geometry":{"type":"MultiLineString","coordinates":[[[162.594779158963632,-77.839142187613064],[162.606396777050549,-77.818151555910106]]]}},
{"type":"Feature","properties":{"SCAR_CODE":23090,"HEIGHT":1000,"SURFACE":"Ice","CERTAINTY":"Definite"},"geometry":{"type":"MultiLineString","coordinates":[[[166.812511007847434,-77.554908443858054],[166.953267623971641,-77.589109657645125],[167.11423581797564,-77.617051132285127],[167.298259546150604,-77.627486469269314],[167.501865364341938,-77.621981589878203],[167.715407376016202,-77.60846794967371],[167.930127119145595,-77.594822766101842],[168.149167391819788,-77.588410885572017],[168.396830701716851,-77.588107685384671],[168.629136896416554,-77.586104763600474],[168.632213438811192,-77.585891258206146]]]}},
{"type":"Feature","properties":{"SCAR_CODE":23160,"HEIGHT":1000,"SURFACE":"Ice free ground","CERTAINTY":"Definite"},"geometry":{"type":"MultiLineString","coordinates":[[[161.713717496376688,-77.743088976146041],[161.834705901694264,-77.71978050808255],[162.031976186219254,-77.701028111578879],[162.242342800926707,-77.685019923657691],[162.435338138329286,-77.665136510763915],[162.592680064954777,-77.633702416406265],[162.745640188420907,-77.586754004338445],[162.856198498265258,-77.539266560029773],[162.876058596725073,-77.508182991535563],[162.766101828721787,-77.504337295480767],[162.556050466632399,-77.518212400751693],[162.305907778574039,-77.537620244053429],[162.07577208542051,-77.550726306567356],[161.838514282697844,-77.560209168203713],[161.766371961658876,-77.56273526923998]],[[161.898873528411031,-77.319829435418654],[161.922982918123239,-77.318850348066093],[162.173632177767587,-77.310922163813999],[162.392906948567287,-77.301800529748746],[162.514471142032193,-77.289072576351572],[162.385681592547428,-77.270787710966218],[162.13044897129916,-77.24598383018369],[162.083313241123761,-77.212943686916333],[162.224522086870365,-77.167028288539342],[162.243980982519872,-77.161871724821452]]]}},
{"type":"Feature","properties":{"SCAR_CODE":23160,"HEIGHT":1000,"SURFACE":"Ice free ground","CERTAINTY":"Definite"},"geometry":{"type":"MultiLineString","coordinates":[[[162.301288918075585,-77.146652694082178],[162.387165625263947,-77.123755420223148],[162.422386531333643,-77.102285727110569],[162.278927759157682,-77.117377383105264],[162.049726854918333,-77.147398222849702],[161.987835923303777,-77.151329333159495]]]}},
{"type":"Feature","properties":{"SCAR_CODE":23090,"HEIGHT":1000,"SURFACE":"Ice","CERTAINTY":"Definite"},"geometry":{"type":"MultiLineString","coordinates":[[[168.277600373165626,-77.429694186341393],[168.093196589605384,-77.437740717881525],[167.868707194383319,-77.449581511190644],[167.662996710090908,-77.459249579266725],[167.601330738159845,-77.462579941671748]]]}},
{"type":"Feature","properties":{"SCAR_CODE":23090,"HEIGHT":1000,"SURFACE":"Ice","CERTAINTY":"Definite"},"geometry":{"type":"MultiLineString","coordinates":[[[168.720123663299034,-77.459474596678731],[168.675418675657937,-77.442100358399628],[168.521317794067016,-77.426534745754253],[168.319657071652642,-77.427839484740986],[168.313755704242681,-77.428100173522907]]]}},
{"type":"Feature","properties":{"SCAR_CODE":23160,"HEIGHT":1000,"SURFACE":"Ice free ground","CERTAINTY":"Definite"},"geometry":{"type":"MultiLineString","coordinates":[[[163.671859133943286,-74.413186694141643],[163.68757547044018,-74.41819430603293],[163.863687521829632,-74.43127298292309],[164.055586053661671,-74.423784476543787],[164.077635900185612,-74.414179199700513]]]}},
{"type":"Feature","properties":{"SCAR_CODE":23090,"HEIGHT":1000,"SURFACE":"Ice","CERTAINTY":"Definite"},"geometry":{"type":"MultiLineString","coordinates":[[[164.805842476465614,-74.414023109634641],[164.74288376010432,-74.427404330248351],[164.605766175989828,-74.414313873404893]]]}},
{"type":"Feature","properties":{"SCAR_CODE":23090,"HEIGHT":2000,"SURFACE":"Ice","CERTAINTY":"Definite"},"geometry":{"type":"MultiLineString","coordinates":[[[162.86131000495169,-78.018133911065675],[162.858264293471507,-78.016150490340365],[162.801086148692974,-78.008703994158566]]]}},
{"type":"Feature","properties":{"SCAR_CODE":23090,"HEIGHT":1000,"SURFACE":"Ice","CERTAINTY":"Definite"},"geometry":{"type":"MultiLineString","coordinates":[[[161.668115379264037,-77.752386191216956],[161.671057652638012,-77.751273490613897],[161.713717496376688,-77.743088976146041]]]}},
{"type":"Feature","properties":{"SCAR_CODE":23090,"HEIGHT":1000,"SURFACE":"Ice","CERTAINTY":"Definite"},"geometry":{"type":"MultiLineString","coordinates":[[[167.404530045865783,-77.473438233428539],[167.397337642972559,-77.473863470685558]]]}},
{"type":"Feature","properties":{"SCAR_CODE":23090,"HEIGHT":1000,"SURFACE":"Ice","CERTAINTY":"Definite"},"geometry":{"type":"MultiLineString","coordinates":[[[162.243980982519872,-77.161871724821452],[162.301288918075585,-77.146652694082178]]]}},
{"type":"Feature","properties":{"SCAR_CODE":23160,"HEIGHT":1000,"SURFACE":"Ice free ground","CERTAINTY":"Definite"},"geometry":{"type":"MultiLineString","coordinates":[[[168.632213438811192,-77.585891258206146],[168.733670418816928,-77.578826340213766]]]}},
{"type":"Feature","properties":{"SCAR_CODE":23160,"HEIGHT":2000,"SURFACE":"Ice free ground","CERTAINTY":"Definite"},"geometry":{"type":"MultiLineString","coordinates":[[[162.765021252783072,-78.259899798297539],[162.780236393739841,-78.239715539783603],[162.80949638388492,-78.194504044512257],[162.853738672074797,-78.146207839796659],[162.899777902367475,-78.096959583243233],[162.91335561271751,-78.051920924442939],[162.86131000495169,-78.018133911065675]]]}},
{"type":"Feature","properties":{"SCAR_CODE":23160,"HEIGHT":2000,"SURFACE":"Ice free ground","CERTAINTY":"Definite"},"geometry":{"type":"MultiLineString","coordinates":[[[161.648979938458382,-78.138732947931345],[161.651132796231423,-78.140040468100807],[161.658405233164331,-78.144455075469153],[161.75938638387322,-78.178267631248659],[161.777990384577265,-78.184472071731605]]]}},
{"type":"Feature","properties":{"SCAR_CODE":23160,"HEIGHT":2000,"SURFACE":"Ice free ground","CERTAINTY":"Definite"},"geometry":{"type":"MultiLineString","coordinates":[[[161.681953571070238,-78.057862032593121],[161.674857452157227,-78.05940870079705],[161.629040243664491,-78.069381032658399],[161.613108243553029,-78.084160616896185],[161.607952611259662,-78.08893531723426]]]}},
{"type":"Feature","properties":{"SCAR_CODE":23090,"HEIGHT":2000,"SURFACE":"Ice","CERTAINTY":"Definite"},"geometry":{"type":"MultiLineString","coordinates":[[[161.827901389518246,-78.030337251691293],[161.7955971581315,-78.034610871034488],[161.777247517578985,-78.037035362205842],[161.764515678496679,-78.039824020489903],[161.681953571070238,-78.057862032593121]]]}},
{"type":"Feature","properties":{"SCAR_CODE":23160,"HEIGHT":2000,"SURFACE":"Ice free ground","CERTAINTY":"Definite"},"geometry":{"type":"MultiLineString","coordinates":[[[162.300500465675725,-77.985780844888083],[162.212113584658795,-77.98885412625863],[161.988681857316493,-78.008965439573828],[161.866708778787739,-78.025194286732443],[161.827901389518246,-78.030337251691293]]]}},
{"type":"Feature","properties":{"SCAR_CODE":23090,"HEIGHT":2000,"SURFACE":"Ice","CERTAINTY":"Definite"},"geometry":{"type":"MultiLineString","coordinates":[[[162.532863211363718,-77.986017505766341],[162.525757340375634,-77.985723198588445],[162.423346404286235,-77.981459609257556],[162.306306980267323,-77.985577899043065],[162.300500465675725,-77.985780844888083]]]}},
{"type":"Feature","properties":{"SCAR_CODE":23090,"HEIGHT":1000,"SURFACE":"Ice","CERTAINTY":"Definite"},"geometry":{"type":"MultiLineString","coordinates":[[[163.41362446022751,-78.021765540498578],[163.412681669743421,-78.02020577061775],[163.390589041464779,-77.983538159883864],[163.318572815088714,-77.943719088233166],[163.252789578656376,-77.931219546629734],[163.233530264183969,-77.927552183411024]]]}},
{"type":"Feature","properties":{"SCAR_CODE":23160,"HEIGHT":1000,"SURFACE":"Ice free ground","CERTAINTY":"Definite"},"geometry":{"type":"MultiLineString","coordinates":[[[163.233530264183969,-77.927552183411024],[163.171947903793608,-77.915801632594764],[162.997495295434419,-77.900669964186562],[162.995946230899676,-77.900534933240806]]]}},
{"type":"Feature","properties":{"SCAR_CODE":23090,"HEIGHT":1000,"SURFACE":"Ice","CERTAINTY":"Definite"},"geometry":{"type":"MultiLineString","coordinates":[[[161.640222319440198,-77.819341665357854],[161.638400587315601,-77.819651366258469],[161.618494670312828,-77.82303362408075]]]}},
{"type":"Feature","properties":{"SCAR_CODE":23160,"HEIGHT":1000,"SURFACE":"Ice free ground","CERTAINTY":"Definite"},"geometry":{"type":"MultiLineString","coordinates":[[[162.79435598109967,-77.884210098780471],[162.790199851796643,-77.883877823883623],[162.739198110429442,-77.87979369196681],[162.586717259048442,-77.853665768947295],[162.594282744182692,-77.840037489757066],[162.594779158963632,-77.839142187613064]]]}},
{"type":"Feature","properties":{"SCAR_CODE":23160,"HEIGHT":1000,"SURFACE":"Ice free ground","CERTAINTY":"Definite"},"geometry":{"type":"MultiLineString","coordinates":[[[161.656799509214949,-77.756663419962905],[161.668115379264037,-77.752386191216956]]]}},
{"type":"Feature","properties":{"SCAR_CODE":23160,"HEIGHT":1000,"SURFACE":"Ice free ground","CERTAINTY":"Definite"},"geometry":{"type":"MultiLineString","coordinates":[[[162.606396777050549,-77.818151555910106],[162.606786261963151,-77.817446577735282],[162.613489255451384,-77.80530113946601],[162.443809166584231,-77.777388255034154],[162.229429937800347,-77.757693778711086],[162.028687972935984,-77.760579399737807],[161.810599111113561,-77.790253231770436],[161.640222319440198,-77.819341665357854]]]}},
{"type":"Feature","properties":{"SCAR_CODE":23160,"HEIGHT":1000,"SURFACE":"Ice free ground","CERTAINTY":"Definite"},"geometry":{"type":"MultiLineString","coordinates":[[[166.776674961986856,-77.546559988183418],[166.800606876057429,-77.552053430961593],[166.803981240877334,-77.552827436659385],[166.812511007847434,-77.554908443858054]]]}},
{"type":"Feature","properties":{"SCAR_CODE":23090,"HEIGHT":1000,"SURFACE":"Ice","CERTAINTY":"Definite"},"geometry":{"type":"MultiLineString","coordinates":[[[166.685140162896715,-77.525484066568907],[166.77168385296352,-77.545413425201914],[166.776674961986856,-77.546559988183418]]]}},
{"type":"Feature","properties":{"SCAR_CODE":23160,"HEIGHT":1000,"SURFACE":"Ice free ground","CERTAINTY":"Definite"},"geometry":{"type":"MultiLineString","coordinates":[[[167.397337642972559,-77.473863470685558],[167.257397955332209,-77.482092482117153],[167.055003593581631,-77.494488424147917],[166.653334562297658,-77.518136760355958],[166.67382821643514,-77.522872356114377],[166.685140162896715,-77.525484066568907]]]}},
{"type":"Feature","properties":{"SCAR_CODE":23090,"HEIGHT":1000,"SURFACE":"Ice","CERTAINTY":"Definite"},"geometry":{"type":"MultiLineString","coordinates":[[[168.733670418816928,-77.578826340213766],[168.794392434000997,-77.574575647700726],[168.845578447620397,-77.541481326908112],[168.845991508782589,-77.541213507662974],[168.84581037973652,-77.541031842794027]]]}},
{"type":"Feature","properties":{"SCAR_CODE":23160,"HEIGHT":1000,"SURFACE":"Ice free ground","CERTAINTY":"Definite"},"geometry":{"type":"MultiLineString","coordinates":[[[167.601330738159845,-77.462579941671748],[167.598810329633295,-77.4627157160715],[167.459894777209314,-77.470157374615624],[167.404530045865783,-77.473438233428539]]]}},
{"type":"Feature","properties":{"SCAR_CODE":23160,"HEIGHT":1000,"SURFACE":"Ice free ground","CERTAINTY":"Definite"},"geometry":{"type":"MultiLineString","coordinates":[[[168.84581037973652,-77.541031842794027],[168.792752149580082,-77.487583119997666],[168.720279159322672,-77.459534932179437],[168.720123663299034,-77.459474596678731]]]}},
{"type":"Feature","properties":{"SCAR_CODE":23160,"HEIGHT":1000,"SURFACE":"Ice free ground","CERTAINTY":"Definite"},"geometry":{"type":"MultiLineString","coordinates":[[[168.313755704242681,-77.428100173522907],[168.286071174339781,-77.429321208116022],[168.279676560321917,-77.429602796914821],[168.277600373165626,-77.429694186341393]]]}}
]
}
