{
"type": "FeatureCollection",
"name": "clipped_ADD Streams (high)",
"crs": { "type": "name", "properties": { "name": "urn:ogc:def:crs:OGC:1.3:CRS84" } },
"features": [
{"type":"Feature","properties":{"SCAR_CODE":23060,"SOURCEDATE":null,"SOURCE":"USGS 1:250000","IMW_SHEET":"ST57_60/10","EDITOR":"SDE","STR00SRC":"USGS","REVDATE":"29-JUN-98"},"geometry":{"type":"MultiLineString","coordinates":[[[166.08681308889814,-78.27150571447423],[166.088705833781489,-78.271281894510025],[166.091710268660393,-78.270982631788286],[166.094988896495806,-78.27067837551553],[166.099069594102019,-78.270207959093852],[166.100909015693901,-78.269530858980374],[166.102722319840865,-78.268617791502407],[166.105374704021841,-78.267822035641103],[166.108349202801833,-78.267295896903832],[166.111299551426697,-78.266599583003114],[166.115314727385879,-78.265740936310621],[166.117733525345727,-78.265158647856239],[166.121499398277564,-78.264409436890006],[166.123346296216823,-78.263845306732861],[166.125240708462741,-78.263490034404001],[166.12603179725815,-78.263267009648501]]]}},
{"type":"Feature","properties":{"SCAR_CODE":23060,"SOURCEDATE":null,"SOURCE":"USGS 1:250000","IMW_SHEET":"ST57_60/10","EDITOR":"SDE","STR00SRC":"USGS","REVDATE":"29-JUN-98"},"geometry":{"type":"MultiLineString","coordinates":[[[166.076326259967487,-78.261064471546064],[166.077419691640074,-78.26100699167803],[166.07960994337293,-78.260826483345753],[166.081775331089602,-78.260475744624713],[166.083878232090342,-78.259736989066809],[166.08657076827302,-78.259215696020732],[166.08902657176219,-78.259039142162479],[166.092052048758887,-78.258966375433261],[166.094831011084125,-78.259059494902729],[166.096776821828911,-78.259157539622166]]]}},
{"type":"Feature","properties":{"SCAR_CODE":23060,"SOURCEDATE":null,"SOURCE":"USGS 1:250000","IMW_SHEET":"ST57_60/10","EDITOR":"SDE","STR00SRC":"USGS","REVDATE":"29-JUN-98"},"geometry":{"type":"MultiLineString","coordinates":[[[166.070910770023431,-78.25340345296101],[166.072014055418634,-78.253459172684401],[166.074532768662323,-78.253727163316853],[166.077332345777478,-78.253990529732334],[166.084029801406473,-78.254563186619549],[166.085680715359587,-78.254561992730785],[166.089573430118435,-78.254758330623744],[166.090127521273814,-78.254814431733294]]]}},
{"type":"Feature","properties":{"SCAR_CODE":23060,"SOURCEDATE":null,"SOURCE":"USGS 1:250000","IMW_SHEET":"ST57_60/10","EDITOR":"SDE","STR00SRC":"USGS","REVDATE":"29-JUN-98"},"geometry":{"type":"MultiLineString","coordinates":[[[166.076326259967487,-78.261064471546064],[166.081487453651988,-78.264628994850469],[166.083147066563356,-78.264675116677481],[166.085916549460279,-78.264777168913909],[166.088957725119172,-78.264761469512734],[166.098248542378428,-78.264037406756032],[166.103992439471511,-78.263669570939186],[166.108891530098248,-78.263080797046655],[166.11322333089899,-78.262435268252517],[166.11534852269773,-78.261866417857092],[166.117143205064309,-78.260849210345413],[166.118951780053777,-78.259879634216333],[166.1207692466119,-78.259088829557882],[166.124281939786243,-78.258439584352885],[166.127803541111007,-78.257969076934131],[166.131599150153107,-78.257512311732526],[166.134044518088331,-78.257156585127305],[166.136214684276723,-78.256918401434135],[166.137565338209441,-78.256685956617602]]]}},
{"type":"Feature","properties":{"SCAR_CODE":23060,"SOURCEDATE":null,"SOURCE":"USGS 1:250000","IMW_SHEET":"ST57_60/5","EDITOR":"SDE","STR00SRC":"USGS","REVDATE":"29-JUN-98"},"geometry":{"type":"MultiLineString","coordinates":[[[161.724447711736872,-77.811378718930541],[161.723395443207608,-77.812513377138131],[161.720717266725131,-77.813563411625594],[161.718803557050791,-77.814484604943544],[161.717662780206297,-77.815220018174031],[161.717354493924518,-77.816186090077039],[161.718225319947493,-77.817579570447577],[161.718332443048695,-77.818028093179805],[161.718720779110413,-77.818467460316867],[161.718862123369206,-77.819090953408647]]]}},
{"type":"Feature","properties":{"SCAR_CODE":23060,"SOURCEDATE":null,"SOURCE":"USGS 1:250000","IMW_SHEET":"ST57_60/6","EDITOR":"SDE","STR00SRC":"USGS","REVDATE":"29-JUN-98"},"geometry":{"type":"MultiLineString","coordinates":[[[163.597207714104144,-77.929886397842367],[163.601531781596748,-77.928918634115107],[163.603243449328858,-77.928302609047222],[163.604470654506457,-77.927248612138854],[163.604867033478541,-77.926409251603019],[163.605019560154858,-77.925346062263912],[163.605749447391332,-77.924052653788749],[163.608089067521547,-77.922829890390872],[163.610974990889616,-77.921450940390798],[163.613611765774976,-77.919999719380087],[163.616500285274043,-77.918620958884219],[163.620421616932674,-77.917571524876095],[163.625384213669179,-77.916700036739655],[163.632227915227162,-77.915792362123241],[163.63940343966965,-77.914439973198313],[163.649653251892772,-77.91230850464764],[163.654915959861995,-77.911170521569701],[163.656336433046533,-77.910669464185403]]]}},
{"type":"Feature","properties":{"SCAR_CODE":23060,"SOURCEDATE":null,"SOURCE":"USGS 1:250000","IMW_SHEET":"ST57_60/5","EDITOR":"SDE","STR00SRC":"USGS","REVDATE":"29-JUN-98"},"geometry":{"type":"MultiLineString","coordinates":[[[161.762998677883786,-77.793886907839962],[161.761780151251941,-77.793217287391101],[161.760253086796155,-77.79244946352145],[161.758223626340879,-77.791742447172084],[161.755916416928869,-77.791044788923529],[161.75282689884753,-77.790340458463305],[161.75080676930412,-77.789691500149857],[161.749017653782715,-77.788924427964375],[161.747808220925066,-77.788322398208024],[161.745856969744182,-77.787946579430951],[161.743104154329529,-77.787581890929502],[161.731042351674375,-77.786087701161151],[161.728236078103265,-77.785508153378188],[161.726236151287821,-77.784908216482251],[161.722823674070924,-77.783989003657027],[161.720248512755603,-77.783233723150175],[161.71494733666745,-77.782230205983979],[161.711005309696986,-77.781312041900776]]]}},
{"type":"Feature","properties":{"SCAR_CODE":23060,"SOURCEDATE":null,"SOURCE":"USGS 1:250000","IMW_SHEET":"ST57_60/5","EDITOR":"SDE","STR00SRC":"USGS","REVDATE":"29-JUN-98"},"geometry":{"type":"MultiLineString","coordinates":[[[161.777866045538019,-77.790513654872683],[161.778501409227317,-77.789887002604473],[161.78048527083206,-77.788242504878824],[161.780877401365188,-77.787675598974559],[161.78073323446435,-77.787052173622357],[161.779452536175512,-77.78622498367632],[161.77842032998808,-77.785280910487003],[161.777675363342638,-77.784395175838895],[161.77680364862664,-77.783059723410673],[161.776940339991768,-77.78142075840239],[161.776710244645187,-77.780532554734165],[161.774497106394222,-77.779093973699588],[161.773305652212514,-77.778541263841959],[161.772652387729124,-77.778102749067671],[161.772566971813603,-77.777703831401581],[161.773219512879024,-77.777135937805923],[161.774899994060064,-77.776448047875263],[161.776629907752636,-77.775926539394732],[161.778927128077754,-77.775502091117119],[161.780683698806314,-77.77508786091046],[161.782127576666653,-77.774508070837541],[161.782829199145027,-77.774106546806308],[161.783247070010987,-77.773656490988685],[161.784429685083239,-77.773087246127631],[161.784492218038423,-77.772459083301996]]]}},
{"type":"Feature","properties":{"SCAR_CODE":23060,"SOURCEDATE":null,"SOURCE":"USGS 1:250000","IMW_SHEET":"ST57_60/5","EDITOR":"SDE","STR00SRC":"USGS","REVDATE":"29-JUN-98"},"geometry":{"type":"MultiLineString","coordinates":[[[161.82549132524295,-77.784301216522394],[161.82425183470113,-77.783582696648054],[161.823238279709415,-77.781691733409261],[161.823014372960557,-77.780794653471531],[161.822590437369684,-77.780180699067571],[161.821406838055509,-77.779686396522621],[161.819948939551693,-77.779134681649154],[161.818192523665402,-77.778543025675987],[161.815711248949185,-77.777115199503839],[161.815282795687779,-77.77644339651971],[161.815142009550073,-77.775877843301217],[161.815509864310627,-77.775261441273557],[161.816177504107372,-77.774685064272845],[161.816572550320416,-77.774175961520982],[161.816744748068373,-77.773775920106729],[161.817189258510581,-77.773442736742709],[161.816849613978775,-77.773160392797791],[161.816775998731998,-77.772886977214867],[161.815096052448808,-77.772616760956083]]]}},
{"type":"Feature","properties":{"SCAR_CODE":23060,"SOURCEDATE":null,"SOURCE":"USGS 1:250000","IMW_SHEET":"ST57_60/5","EDITOR":"SDE","STR00SRC":"USGS","REVDATE":"29-JUN-98"},"geometry":{"type":"MultiLineString","coordinates":[[[161.847579702179416,-77.783315281453383],[161.847626010702299,-77.782475421991478],[161.847571491844519,-77.78225128958421],[161.847438134799091,-77.781743854395728],[161.846960353871026,-77.780915519310582],[161.845689185135228,-77.780080001912424],[161.840279976379293,-77.777615803621629],[161.836305066322183,-77.776592354275792],[161.833487035145112,-77.775955801506257],[161.831697272824158,-77.77518947263718],[161.831218912408445,-77.774351405505755],[161.830037160344773,-77.772784167269677],[161.829414008113332,-77.772462983390625],[161.828589236918617,-77.772300237707967],[161.815096052448808,-77.772616760956083]]]}},
{"type":"Feature","properties":{"SCAR_CODE":23060,"SOURCEDATE":null,"SOURCE":"USGS 1:250000","IMW_SHEET":"ST57_60/6","EDITOR":"SDE","STR00SRC":"USGS","REVDATE":"29-JUN-98"},"geometry":{"type":"MultiLineString","coordinates":[[[162.890970655893426,-77.823474167997347],[162.89146845508867,-77.823649383269569],[162.895061030502688,-77.82434941683502],[162.896916379172609,-77.824374610186325],[162.900917881320424,-77.824358102994069],[162.904890621475772,-77.824501597876889],[162.908259447136487,-77.824986850950296],[162.91184047052451,-77.825742974589261],[162.919882265478435,-77.828178731076136],[162.923416469063511,-77.829122048551639],[162.925173195363016,-77.829693008657443],[162.927204541557302,-77.830215064242637],[162.92846701298734,-77.830563494157204],[162.929484828563034,-77.830800832828132],[162.930998788458481,-77.831213145897721],[162.931726668958191,-77.831603127873834],[162.931919031318643,-77.831948915083743]]]}},
{"type":"Feature","properties":{"SCAR_CODE":23060,"SOURCEDATE":null,"SOURCE":"USGS 1:250000","IMW_SHEET":"ST57_60/6","EDITOR":"SDE","STR00SRC":"USGS","REVDATE":"29-JUN-98"},"geometry":{"type":"MultiLineString","coordinates":[[[162.926640926679084,-77.81194025414068],[162.929411606108687,-77.812748507136845],[162.932148076491245,-77.813725914446763],[162.93485953230558,-77.814768309672544],[162.93732281625185,-77.815794568537896],[162.939870967633112,-77.816378688811056],[162.948576231937921,-77.818151879780899],[162.952397534171723,-77.819027729810401],[162.956502331342108,-77.819798042754556],[162.958787228529701,-77.820383887995092],[162.961049301218964,-77.821072967934825],[162.96203406309769,-77.821479451430022]]]}},
{"type":"Feature","properties":{"SCAR_CODE":23060,"SOURCEDATE":null,"SOURCE":"USGS 1:250000","IMW_SHEET":"ST57_60/6","EDITOR":"SDE","STR00SRC":"USGS","REVDATE":"29-JUN-98"},"geometry":{"type":"MultiLineString","coordinates":[[[163.754440589145275,-77.88615578803028],[163.757185553760166,-77.885669292689258],[163.761109580830777,-77.884448775985433],[163.765036830311431,-77.883076717262057],[163.772823531380396,-77.880935369660264],[163.777007597239589,-77.879721238075504],[163.785662762297932,-77.87707342237573],[163.790625236909932,-77.875982661891911],[163.799440672744822,-77.874122051504386],[163.80243960316912,-77.873688820293168],[163.807067481264056,-77.87309898495505],[163.810646228739898,-77.872331319943314],[163.812323509125065,-77.871779466671313],[163.813486559005156,-77.871110914285339],[163.814662719093832,-77.8702725115768],[163.815866803352122,-77.869217762637618],[163.817000971209382,-77.868774998364302],[163.82027165128352,-77.868339312303107],[163.823805030946602,-77.867910141657418],[163.825734797357256,-77.86746848404394],[163.826603034384107,-77.866914695701936],[163.826416246296674,-77.866353457788605],[163.826779973105289,-77.865569827847693],[163.827400331051535,-77.864953532838328],[163.828795602120806,-77.864507736323773],[163.829890781604263,-77.864242719316593],[163.830983237206965,-77.864081813550641]]]}},
{"type":"Feature","properties":{"SCAR_CODE":23060,"SOURCEDATE":null,"SOURCE":"USGS 1:250000","IMW_SHEET":"ST57_60/6","EDITOR":"SDE","STR00SRC":"USGS","REVDATE":"29-JUN-98"},"geometry":{"type":"MultiLineString","coordinates":[[[163.024679143031108,-77.798250770759594],[163.026968119739081,-77.798826813621218],[163.028943141723346,-77.799582454626389],[163.03255013425931,-77.800224406872132],[163.036423438665594,-77.800826350228832],[163.041068193676466,-77.801592152112377],[163.044326162414222,-77.802639668152764],[163.046816639347867,-77.803504424855717],[163.049894530154319,-77.804092896371429],[163.05378249206143,-77.804685887382718],[163.057107359033353,-77.80533772304446],[163.059840244634785,-77.806370142559686],[163.061312260323092,-77.807054910768755],[163.061993108571443,-77.807679243593782],[163.062706766292195,-77.808134379413573],[163.063162419110995,-77.808487262395531]]]}},
{"type":"Feature","properties":{"SCAR_CODE":23060,"SOURCEDATE":null,"SOURCE":"USGS 1:250000","IMW_SHEET":"ST57_60/6","EDITOR":"SDE","STR00SRC":"USGS","REVDATE":"29-JUN-98"},"geometry":{"type":"MultiLineString","coordinates":[[[163.459704430119217,-77.71459819086202],[163.462103401429005,-77.714550418796492],[163.464449172818462,-77.714736643350051],[163.466035262912641,-77.714798884116178],[163.459704430119217,-77.71459819086202]]]}},
{"type":"Feature","properties":{"SCAR_CODE":23060,"SOURCEDATE":null,"SOURCE":"USGS 1:250000","IMW_SHEET":"ST57_60/6","EDITOR":"SDE","STR00SRC":"USGS","REVDATE":"29-JUN-98"},"geometry":{"type":"MultiLineString","coordinates":[[[163.421249267372332,-77.718707812224793],[163.418580515086489,-77.719004119753777],[163.416107131394313,-77.719607214376069],[163.414987476574623,-77.719944668284043],[163.415230317045285,-77.720112018222395],[163.416491443366624,-77.720457855993544],[163.418066279212582,-77.720576620583401],[163.421504122865883,-77.720547446587588],[163.425046533173031,-77.719898037025501],[163.428280283939557,-77.719475985352418],[163.438778355083826,-77.718317084716588],[163.442831035167643,-77.717728320515874],[163.446862566543729,-77.717309112045498],[163.449797885367246,-77.717162392271774],[163.454889330338489,-77.716743646542113],[163.459163492728948,-77.716491567462398],[163.463215862808624,-77.715902579397479],[163.464837983096032,-77.715644259918903],[163.465971230389613,-77.715193631465098],[163.459704430119217,-77.71459819086202]]]}},
{"type":"Feature","properties":{"SCAR_CODE":23060,"SOURCEDATE":null,"SOURCE":"USGS 1:250000","IMW_SHEET":"ST57_60/6","EDITOR":"SDE","STR00SRC":"USGS","REVDATE":"29-JUN-98"},"geometry":{"type":"MultiLineString","coordinates":[[[163.468463628879618,-77.714430083496907],[163.471386493270046,-77.71433937130962],[163.473268357032055,-77.71417339018204],[163.478631788924048,-77.713657572458047],[163.479999621170265,-77.71338314629881],[163.468463628879618,-77.714430083496907]]]}},
{"type":"Feature","properties":{"SCAR_CODE":23060,"SOURCEDATE":null,"SOURCE":"USGS 1:250000","IMW_SHEET":"ST57_60/6","EDITOR":"SDE","STR00SRC":"USGS","REVDATE":"29-JUN-98"},"geometry":{"type":"MultiLineString","coordinates":[[[163.582575583948824,-77.716410667042751],[163.581939968457107,-77.71713945304306],[163.581079727827472,-77.717635900348938],[163.579904270362107,-77.718416249064333],[163.579514217352283,-77.719255341652541],[163.580911500162216,-77.720500674220887],[163.582153897782064,-77.721072011723209],[163.582834602380672,-77.721807410367418],[163.582740414862712,-77.722475259824563],[163.581600904635053,-77.723030148979362],[163.579637824377471,-77.723751681417383],[163.577379698378735,-77.724691964575911],[163.575263493888855,-77.726476261133627],[163.574002076344129,-77.727820685054482],[163.573503684709749,-77.729393260577709],[163.573616604083838,-77.730406283826412],[163.574507387417441,-77.73153448189457],[163.57593867494495,-77.732611122382281],[163.576829834725174,-77.73373931725699],[163.57720171308452,-77.73475905717217],[163.577025033177307,-77.735991178513345],[163.576683740499249,-77.73649175413064]]]}},
{"type":"Feature","properties":{"SCAR_CODE":23060,"SOURCEDATE":null,"SOURCE":"USGS 1:250000","IMW_SHEET":"ST57_60/6","EDITOR":"SDE","STR00SRC":"USGS","REVDATE":"29-JUN-98"},"geometry":{"type":"MultiLineString","coordinates":[[[163.664128058880266,-77.498882695554684],[163.67525733947852,-77.501674585630724],[163.678326206339563,-77.501982917110325],[163.681839429413714,-77.502850293385904],[163.684798267484382,-77.503995335387216],[163.685994234453119,-77.504782153760175],[163.687430964228923,-77.505641091010745],[163.688646877260538,-77.506258491442111],[163.689331964886719,-77.506946553961967],[163.689754563995194,-77.507674874804721],[163.706259797461968,-77.507392133987324]]]}},
{"type":"Feature","properties":{"SCAR_CODE":23060,"SOURCEDATE":null,"SOURCE":"USGS 1:250000","IMW_SHEET":"ST57_60/6","EDITOR":"SDE","STR00SRC":"USGS","REVDATE":"29-JUN-98"},"geometry":{"type":"MultiLineString","coordinates":[[[163.129520563248576,-77.378540666155047],[163.134520592970659,-77.378976606729509],[163.137313181684704,-77.379180646521277],[163.140104876139247,-77.379422613184374],[163.144689731894971,-77.379640709324491],[163.14880055919204,-77.379675254549724],[163.154452262814175,-77.379773689234611],[163.161340721672076,-77.380115381511885],[163.1661309975064,-77.380660286110938],[163.172426853283127,-77.381447148192208],[163.179513582750189,-77.382124493718919],[163.186736284877128,-77.382021813113042],[163.194308697827893,-77.381457380909794],[163.201296231705868,-77.381186773023231],[163.208479570002368,-77.381356503805804],[163.215120788759748,-77.381642319598896],[163.221498832362698,-77.381977117821961],[163.22761250903136,-77.382360835747747],[163.233229497772925,-77.382578676952079],[163.241456073307148,-77.382645090310604],[163.24965737137623,-77.382880577905809],[163.257352996062991,-77.383054052067706],[163.264749594174589,-77.383454622006241],[163.26956984914321,-77.383885240826842],[163.275702700805567,-77.384107461402962],[163.285896813354185,-77.383180761172994],[163.29210614909681,-77.383008707017197],[163.299065229015952,-77.382952153411267],[163.305222049639042,-77.383108769378921],[163.308044894170848,-77.383132286440514],[163.314980734912041,-77.383244730094788],[163.320650280644372,-77.383179120488293],[163.327872513457748,-77.383120039592015],[163.33400293232728,-77.383397669186465],[163.33957143414321,-77.383951750582995],[163.343341369216887,-77.38454004898459],[163.347191288695882,-77.384620756130161],[163.349700997314613,-77.38503162284249],[163.351944434458261,-77.385453545793766],[163.355039109903743,-77.385418315275814],[163.357638910515789,-77.385265281052185],[163.361554081719817,-77.384960743285248],[163.363650635571048,-77.3846988492473],[163.364702467490588,-77.384587118871565]]]}},
{"type":"Feature","properties":{"SCAR_CODE":23060,"SOURCEDATE":null,"SOURCE":"USGS 1:250000","IMW_SHEET":"ST57_60/6","EDITOR":"SDE","STR00SRC":"USGS","REVDATE":"29-JUN-98"},"geometry":{"type":"MultiLineString","coordinates":[[[166.196558386746659,-77.550877141082751],[166.197301370962634,-77.550251209692959],[166.20041588848747,-77.550022647006685],[166.203000687701291,-77.549794111529067],[166.205850273961801,-77.549504616492555],[166.212836607696659,-77.548581414463072],[166.21670583762068,-77.547952273873449],[166.221644342921849,-77.547773170479047],[166.225822479492479,-77.547872328675254],[166.232104345519105,-77.548307462249312],[166.234482740396345,-77.548742316564173],[166.238919734737294,-77.548957978091337],[166.242313148195819,-77.548949820622553],[166.24568348819065,-77.548659351120151],[166.247477828456482,-77.548257554393388]]]}},
{"type":"Feature","properties":{"SCAR_CODE":23060,"SOURCEDATE":null,"SOURCE":"USGS 1:250000","IMW_SHEET":"ST57_60/5","EDITOR":"SDE","STR00SRC":"USGS","REVDATE":"29-JUN-98"},"geometry":{"type":"MultiLineString","coordinates":[[[162.001600147881902,-77.211019006356651],[161.989789675378262,-77.212836977598201],[161.990881612860022,-77.213164200720939],[161.991761400829716,-77.21359089721544],[161.992874926996052,-77.213977032464911],[161.993970704789632,-77.214304506813534],[161.995810313472703,-77.214561179507626],[161.99845901259576,-77.214981220016782],[162.000936151313255,-77.215235889874606]]]}},
{"type":"Feature","properties":{"SCAR_CODE":23060,"SOURCEDATE":null,"SOURCE":"USGS 1:250000","IMW_SHEET":"ST57_60/5","EDITOR":"SDE","STR00SRC":"USGS","REVDATE":"29-JUN-98"},"geometry":{"type":"MultiLineString","coordinates":[[[161.986503410633077,-77.211921444231251],[161.987709069617807,-77.211683117703373],[161.988674468905742,-77.211446616980481],[161.992243474572064,-77.211512286378706],[161.993407512234427,-77.211571398946802],[161.994048245015392,-77.21160393439655],[161.995560827331673,-77.211588480834365],[161.996564164824974,-77.211517249568047],[161.998038622294501,-77.211336482823256],[161.993407512234427,-77.211571398946802],[161.986503410633077,-77.211921444231251]]]}},
{"type":"Feature","properties":{"SCAR_CODE":23060,"SOURCEDATE":null,"SOURCE":"USGS 1:250000","IMW_SHEET":"ST57_60/5","EDITOR":"SDE","STR00SRC":"USGS","REVDATE":"29-JUN-98"},"geometry":{"type":"MultiLineString","coordinates":[[[161.959332686795619,-77.205803046611919],[161.961931160321029,-77.206162606563964],[161.966464765498642,-77.207006046427054],[161.970752122538215,-77.20790812097394],[161.97531986403186,-77.208916358249354],[161.978846514043113,-77.209772956265724],[161.983776233434469,-77.211170419027184],[161.985147788838105,-77.211603888669814],[161.986503410633077,-77.211921444231251]]]}},
{"type":"Feature","properties":{"SCAR_CODE":23060,"SOURCEDATE":null,"SOURCE":"USGS 1:250000","IMW_SHEET":"ST57_60/6","EDITOR":"SDE","STR00SRC":"USGS","REVDATE":"29-JUN-98"},"geometry":{"type":"MultiLineString","coordinates":[[[166.530677166959151,-77.327799381989166],[166.532693264861962,-77.327334794224797],[166.535221102715326,-77.326990619755165],[166.53850851966493,-77.326415096779996],[166.542059483692043,-77.32600303551358],[166.547368695719115,-77.325253035717807],[166.549650649111527,-77.324961323426038],[166.551684327062901,-77.324843613612884],[166.552970554065865,-77.324836300962872]]]}},
{"type":"Feature","properties":{"SCAR_CODE":23060,"SOURCEDATE":null,"SOURCE":"USGS 1:250000","IMW_SHEET":"ST57_60/6","EDITOR":"SDE","STR00SRC":"USGS","REVDATE":"29-JUN-98"},"geometry":{"type":"MultiLineString","coordinates":[[[166.426271451829621,-77.306053980709379],[166.428826432711418,-77.305871430708947],[166.429136380165744,-77.305842035852322],[166.430597829423988,-77.305703427851753],[166.431868765870377,-77.305639860474471],[166.429136380165744,-77.305842035852322],[166.426271451829621,-77.306053980709379]]]}},
{"type":"Feature","properties":{"SCAR_CODE":23060,"SOURCEDATE":null,"SOURCE":"USGS 1:250000","IMW_SHEET":"ST57_60/6","EDITOR":"SDE","STR00SRC":"USGS","REVDATE":"29-JUN-98"},"geometry":{"type":"MultiLineString","coordinates":[[[166.433402043671492,-77.30558084694259],[166.435683512636786,-77.305402445007275],[166.436248366778216,-77.305335676317455],[166.437213419058395,-77.3052215976805],[166.438476221972678,-77.305110788702109],[166.440259211816397,-77.30499012976361],[166.436248366778216,-77.305335676317455],[166.433402043671492,-77.30558084694259]]]}},
{"type":"Feature","properties":{"SCAR_CODE":23060,"SOURCEDATE":null,"SOURCE":"USGS 1:250000","IMW_SHEET":"ST57_60/6","EDITOR":"SDE","STR00SRC":"USGS","REVDATE":"29-JUN-98"},"geometry":{"type":"MultiLineString","coordinates":[[[166.433402043671492,-77.30558084694259],[166.443586760367197,-77.304979405795905],[166.446148272764958,-77.305143236366874],[166.45000600735483,-77.305347645670693],[166.45592797359717,-77.305885847893677],[166.460283779339022,-77.305985478493682],[166.464114576546422,-77.305973051144662],[166.469241650929831,-77.306001075742174],[166.474344685573982,-77.305868690517656],[166.478157825542525,-77.305639962071496],[166.484216629680901,-77.304659868301741],[166.486498648055118,-77.304424970320028]]]}},
{"type":"Feature","properties":{"SCAR_CODE":23060,"SOURCEDATE":null,"SOURCE":"USGS 1:250000","IMW_SHEET":"ST57_60/6","EDITOR":"SDE","STR00SRC":"USGS","REVDATE":"29-JUN-98"},"geometry":{"type":"MultiLineString","coordinates":[[[166.433402043671492,-77.30558084694259],[166.443790341341895,-77.304297832479079],[166.445033449176094,-77.303905269453224],[166.4473122904935,-77.30367051511638],[166.450119680122867,-77.303613447753705],[166.458531385590248,-77.303179559497323],[166.462084202421721,-77.30294666574197],[166.465155166004962,-77.302931467993858],[166.467973454433746,-77.303089969979212],[166.470546085428737,-77.303188665685937],[166.473350369059119,-77.303121839983831],[166.476917756119434,-77.302945659698722],[166.486498648055118,-77.304424970320028]]]}},
{"type":"Feature","properties":{"SCAR_CODE":23060,"SOURCEDATE":null,"SOURCE":"USGS 1:250000","IMW_SHEET":"ST57_60/6","EDITOR":"SDE","STR00SRC":"USGS","REVDATE":"29-JUN-98"},"geometry":{"type":"MultiLineString","coordinates":[[[166.433402043671492,-77.30558084694259],[166.43285715266552,-77.305130890261367],[166.433060059824527,-77.304449258467997],[166.434038600720754,-77.303949126706215],[166.435544845417439,-77.303542484570428],[166.438699166071501,-77.301342604743368],[166.439648159065314,-77.300504082941401]]]}},
{"type":"Feature","properties":{"SCAR_CODE":23060,"SOURCEDATE":null,"SOURCE":"USGS 1:250000","IMW_SHEET":"ST57_60/6","EDITOR":"SDE","STR00SRC":"USGS","REVDATE":"29-JUN-98"},"geometry":{"type":"MultiLineString","coordinates":[[[162.053362034418655,-77.024318483742874],[162.054106189231561,-77.024577779261989],[162.058663896478748,-77.025367946126053],[162.063095184470768,-77.02570925999332],[162.066048903962525,-77.02591442087494],[162.07120412064441,-77.027330549306981],[162.072921804541437,-77.028429928524602],[162.073652898688238,-77.029505393198306],[162.075046441401469,-77.030925153801405],[162.077046576648371,-77.031911199023568],[162.080100356544676,-77.032734829894892],[162.083161428916952,-77.033511154802355],[162.084356679718098,-77.033750759427875],[162.086317697934021,-77.033940820562407],[162.091595805383747,-77.033893781510344],[162.094078172629395,-77.03398783437656],[162.096100563756863,-77.033905203060542],[162.098253613993023,-77.033363909523786],[162.09962241100385,-77.032880392829227],[162.10141657532057,-77.032733421095017],[162.104450791436165,-77.03265721984539],[162.106680896063182,-77.032742428896427],[162.109449344097811,-77.032723332388386],[162.113170969016181,-77.032878340788514],[162.115854998499628,-77.033149186528973],[162.117833191280454,-77.033282907573508],[162.121030083763685,-77.033543065058737],[162.122440517903982,-77.033559215303441]]]}},
{"type":"Feature","properties":{"SCAR_CODE":23060,"SOURCEDATE":null,"SOURCE":"USGS 1:250000","IMW_SHEET":"ST57_60/6","EDITOR":"SDE","STR00SRC":"USGS","REVDATE":"29-JUN-98"},"geometry":{"type":"MultiLineString","coordinates":[[[166.391194700955424,-77.291621646683836],[166.391681033522985,-77.291404244462171],[166.392407833815838,-77.290778539531786],[166.39465927337406,-77.29014983146601],[166.397185249568082,-77.289750968707125],[166.397651260198842,-77.289130096578504],[166.398869543822599,-77.288455713046815],[166.402937125053654,-77.288092129066882],[166.404934163608146,-77.287524703637786],[166.405667578665032,-77.287077157208969],[166.407626439806279,-77.286002396424493],[166.411385912094744,-77.285032831984921],[166.417443899470015,-77.284232318175327],[166.422784980884046,-77.283814634872826],[166.427362794918537,-77.283627626238456],[166.430415327081221,-77.283443690592065],[166.432165996192055,-77.283106336507061],[166.433405350625094,-77.282592104858409]]]}},
{"type":"Feature","properties":{"SCAR_CODE":23060,"SOURCEDATE":null,"SOURCE":"USGS 1:250000","IMW_SHEET":"ST57_60/6","EDITOR":"SDE","STR00SRC":"USGS","REVDATE":"29-JUN-98"},"geometry":{"type":"MultiLineString","coordinates":[[[166.345505301872407,-77.281442539749492],[166.348045005352475,-77.281213378707434],[166.351069718373992,-77.280635756386758],[166.356145706685481,-77.28016779268205],[166.363526648029847,-77.279916517960302],[166.370152479105599,-77.279783819713856],[166.381880258205314,-77.279633150372732],[166.393838921014805,-77.279138680096324],[166.398929941821962,-77.27895152894105],[166.405030761463593,-77.278649648712261],[166.415473969268504,-77.278391684146939],[166.420547754411416,-77.278090945112027],[166.423085538936249,-77.277795563175829],[166.426641553669981,-77.277554322650175],[166.430991436365247,-77.277832424506201],[166.436376807934352,-77.278146765456739],[166.442774538885715,-77.278346352379984],[166.444046410831675,-77.278348418773135],[166.445330106164931,-77.278397885620393]]]}},
{"type":"Feature","properties":{"SCAR_CODE":23060,"SOURCEDATE":null,"SOURCE":"USGS 1:250000","IMW_SHEET":"ST57_60/6","EDITOR":"SDE","STR00SRC":"USGS","REVDATE":"29-JUN-98"},"geometry":{"type":"MultiLineString","coordinates":[[[166.342106028798099,-77.27296785264663],[166.348495416965733,-77.273113373404101],[166.35232511745005,-77.27310305918985],[166.354094672408081,-77.27299183527478],[166.342106028798099,-77.27296785264663]]]}},
{"type":"Feature","properties":{"SCAR_CODE":23060,"SOURCEDATE":null,"SOURCE":"USGS 1:250000","IMW_SHEET":"ST57_60/6","EDITOR":"SDE","STR00SRC":"USGS","REVDATE":"29-JUN-98"},"geometry":{"type":"MultiLineString","coordinates":[[[166.337431116109457,-77.26449951163049],[166.341028542156437,-77.264879516865037],[166.345921227043306,-77.265534755787073],[166.35182085178468,-77.266140837526194],[166.362100704695848,-77.267224443912752],[166.36723275487654,-77.267714166324865],[166.371080455611008,-77.268041532846738],[166.37415410794523,-77.268252601303772]]]}},
{"type":"Feature","properties":{"SCAR_CODE":23060,"SOURCEDATE":null,"SOURCE":"USGS 1:250000","IMW_SHEET":"ST57_60/6","EDITOR":"SDE","STR00SRC":"USGS","REVDATE":"29-JUN-98"},"geometry":{"type":"MultiLineString","coordinates":[[[166.339670336485113,-77.259995867040701],[166.340938265752328,-77.260054483527213],[166.343997255158996,-77.259984467302715],[166.349344564686078,-77.259905995654805],[166.354948664768045,-77.259887964522434],[166.360583890829588,-77.260264548331008],[166.364674879807524,-77.260417985280597],[166.368245431685239,-77.260515436439178],[166.372338413200595,-77.260724999989804],[166.376720162841309,-77.261389763080501],[166.380579866121394,-77.261942308965033],[166.385484104459721,-77.262765808935015],[166.388064857786759,-77.263259243495781],[166.393960627889697,-77.263686315809863],[166.39625120641378,-77.263686924491111],[166.398551843719105,-77.263725479066949],[166.400342030047852,-77.263718065043122]]]}},
{"type":"Feature","properties":{"SCAR_CODE":23060,"SOURCEDATE":null,"SOURCE":"USGS 1:250000","IMW_SHEET":"ST57_60/2","EDITOR":"SDE","STR00SRC":"USGS","REVDATE":"29-JUN-98"},"geometry":{"type":"MultiLineString","coordinates":[[[162.191277370991003,-76.995345343430643],[162.189372020979107,-76.994930666468406],[162.187909716143565,-76.994796260257218],[162.184956385326473,-76.994592175235979],[162.182186630193826,-76.994678232250351],[162.178847513172855,-76.995085899996127],[162.175512324819834,-76.995446080622131],[162.173186511409,-76.995802909299201],[162.166524025422348,-76.996514165177331],[162.161537657040157,-76.996458611478971],[162.15376535036404,-76.996583072675492],[162.148647656803632,-76.997090754266239],[162.146027494647569,-76.997617080278161],[162.144676844980921,-76.998053979472715],[162.143551868804678,-76.998602744477225],[162.141804823584295,-76.999650789743058],[162.135898510873915,-76.999489907725916]]]}},
{"type":"Feature","properties":{"SCAR_CODE":23060,"SOURCEDATE":null,"SOURCE":"USGS 1:250000","IMW_SHEET":"ST57_60/6","EDITOR":"SDE","STR00SRC":"USGS","REVDATE":"29-JUN-98"},"geometry":{"type":"MultiLineString","coordinates":[[[166.360112460322483,-77.250094466529077],[166.360634586940904,-77.250375119808993],[166.362206964840652,-77.250927272683342],[166.362758063227403,-77.251490225774958],[166.363820422738172,-77.252220931386233],[166.365908368916735,-77.252828725193865],[166.370773610670966,-77.253201444961775],[166.375622104828665,-77.253357926938989],[166.379694881031241,-77.253285671020322],[166.384282276578404,-77.253325085646495],[166.388165579043203,-77.254271904479907],[166.392008760230055,-77.254533398905238],[166.394806421417002,-77.254467625028724],[166.397349607096231,-77.254341446926347],[166.399373904291934,-77.254168826816908]]]}},
{"type":"Feature","properties":{"SCAR_CODE":23060,"SOURCEDATE":null,"SOURCE":"USGS 1:250000","IMW_SHEET":"ST57_60/6","EDITOR":"SDE","STR00SRC":"USGS","REVDATE":"29-JUN-98"},"geometry":{"type":"MultiLineString","coordinates":[[[166.371592597785622,-77.246909790913918],[166.375444273502723,-77.247396711001912],[166.378790190170804,-77.247950076767111],[166.383443668093008,-77.248835335603587],[166.387837252601997,-77.24977208634985],[166.392477555522646,-77.250487979899177],[166.396859673245615,-77.251199329035998],[166.40073173636236,-77.251920771104537],[166.403816597110506,-77.252300688450433],[166.406131609021003,-77.252630114045516],[166.399373904291934,-77.254168826816908]]]}},
{"type":"Feature","properties":{"SCAR_CODE":23060,"SOURCEDATE":null,"SOURCE":"USGS 1:250000","IMW_SHEET":"ST57_60/6","EDITOR":"SDE","STR00SRC":"USGS","REVDATE":"29-JUN-98"},"geometry":{"type":"MultiLineString","coordinates":[[[166.380224387000283,-77.243113990201934],[166.381260037669023,-77.243328495186972],[166.382802817006819,-77.243551414274847],[166.385362359543819,-77.243828715373226],[166.387409246138958,-77.243928847183682],[166.393784220371373,-77.244138732671004],[166.398863096167929,-77.244007840237089],[166.402408129018454,-77.243710701013583],[166.4046806738302,-77.243476546311769],[166.407706282969031,-77.2430767500705],[166.408709599864267,-77.242961913567186],[166.409976847185021,-77.242898593943764]]]}}
]
}
