{
"type": "FeatureCollection",
"name": "graticule",
"features": [
{"type":"Feature","properties":{"kind":"parallel","label":"78°15'S","value":-78.25},"geometry":{"type":"MultiLineString","coordinates":[[[161.4,-78.25],[161.52565880721221,-78.25],[162.024965325936193,-78.25],[162.524271844660177,-78.25],[163.023578363384217,-78.25],[163.522884882108201,-78.25],[164.022191400832185,-78.25],[164.521497919556168,-78.25],[165.020804438280152,-78.25],[165.520110957004192,-78.25],[166.019417475728176,-78.25],[166.518723994452159,-78.25],[167.018030513176143,-78.25],[167.517337031900126,-78.25],[168.016643550624167,-78.25],[168.51595006934815,-78.25],[169.015256588072134,-78.25],[169.514563106796118,-78.25],[170.013869625520101,-78.25],[170.513176144244085,-78.25],[171.012482662968125,-78.25],[171.1,-78.25]]]}},
{"type":"Feature","properties":{"kind":"parallel","label":"78°S","value":-78.0},"geometry":{"type":"MultiLineString","coordinates":[[[161.4,-78.0],[161.52565880721221,-78.0],[162.024965325936193,-78.0],[162.524271844660177,-78.0],[163.023578363384217,-78.0],[163.522884882108201,-78.0],[164.022191400832185,-78.0],[164.521497919556168,-78.0],[165.020804438280152,-78.0],[165.520110957004192,-78.0],[166.019417475728176,-78.0],[166.518723994452159,-78.0],[167.018030513176143,-78.0],[167.517337031900126,-78.0],[168.016643550624167,-78.0],[168.51595006934815,-78.0],[169.015256588072134,-78.0],[169.514563106796118,-78.0],[170.013869625520101,-78.0],[170.513176144244085,-78.0],[171.012482662968125,-78.0],[171.1,-78.0]]]}},
{"type":"Feature","properties":{"kind":"parallel","label":"77°45'S","value":-77.75},"geometry":{"type":"MultiLineString","coordinates":[[[161.4,-77.75],[161.52565880721221,-77.75],[162.024965325936193,-77.75],[162.524271844660177,-77.75],[163.023578363384217,-77.75],[163.522884882108201,-77.75],[164.022191400832185,-77.75],[164.521497919556168,-77.75],[165.020804438280152,-77.75],[165.520110957004192,-77.75],[166.019417475728176,-77.75],[166.518723994452159,-77.75],[167.018030513176143,-77.75],[167.517337031900126,-77.75],[168.016643550624167,-77.75],[168.51595006934815,-77.75],[169.015256588072134,-77.75],[169.514563106796118,-77.75],[170.013869625520101,-77.75],[170.513176144244085,-77.75],[171.012482662968125,-77.75],[171.1,-77.75]]]}},
{"type":"Feature","properties":{"kind":"parallel","label":"77°30'S","value":-77.5},"geometry":{"type":"MultiLineString","coordinates":[[[161.4,-77.5],[161.52565880721221,-77.5],[162.024965325936193,-77.5],[162.524271844660177,-77.5],[163.023578363384217,-77.5],[163.522884882108201,-77.5],[164.022191400832185,-77.5],[164.521497919556168,-77.5],[165.020804438280152,-77.5],[165.520110957004192,-77.5],[166.019417475728176,-77.5],[166.518723994452159,-77.5],[167.018030513176143,-77.5],[167.517337031900126,-77.5],[168.016643550624167,-77.5],[168.51595006934815,-77.5],[169.015256588072134,-77.5],[169.514563106796118,-77.5],[170.013869625520101,-77.5],[170.513176144244085,-77.5],[171.012482662968125,-77.5],[171.1,-77.5]]]}},
{"type":"Feature","properties":{"kind":"parallel","label":"77°15'S","value":-77.25},"geometry":{"type":"MultiLineString","coordinates":[[[161.4,-77.25],[161.52565880721221,-77.25],[162.024965325936193,-77.25],[162.524271844660177,-77.25],[163.023578363384217,-77.25],[163.522884882108201,-77.25],[164.022191400832185,-77.25],[164.521497919556168,-77.25],[165.020804438280152,-77.25],[165.520110957004192,-77.25],[166.019417475728176,-77.25],[166.518723994452159,-77.25],[167.018030513176143,-77.25],[167.517337031900126,-77.25],[168.016643550624167,-77.25],[168.51595006934815,-77.25],[169.015256588072134,-77.25],[169.514563106796118,-77.25],[170.013869625520101,-77.25],[170.513176144244085,-77.25],[171.012482662968125,-77.25],[171.1,-77.25]]]}},
{"type":"Feature","properties":{"kind":"parallel","label":"77°S","value":-77.0},"geometry":{"type":"MultiLineString","coordinates":[[[161.4,-77.0],[161.52565880721221,-77.0],[162.024965325936193,-77.0],[162.524271844660177,-77.0],[163.023578363384217,-77.0],[163.522884882108201,-77.0],[164.022191400832185,-77.0],[164.521497919556168,-77.0],[165.020804438280152,-77.0],[165.520110957004192,-77.0],[166.019417475728176,-77.0],[166.518723994452159,-77.0],[167.018030513176143,-77.0],[167.517337031900126,-77.0],[168.016643550624167,-77.0],[168.51595006934815,-77.0],[169.015256588072134,-77.0],[169.514563106796118,-77.0],[170.013869625520101,-77.0],[170.513176144244085,-77.0],[171.012482662968125,-77.0],[171.1,-77.0]]]}},
{"type":"Feature","properties":{"kind":"parallel","label":"76°45'S","value":-76.75},"geometry":{"type":"MultiLineString","coordinates":[[[161.4,-76.75],[161.52565880721221,-76.75],[162.024965325936193,-76.75],[162.524271844660177,-76.75],[163.023578363384217,-76.75],[163.522884882108201,-76.75],[164.022191400832185,-76.75],[164.521497919556168,-76.75],[165.020804438280152,-76.75],[165.520110957004192,-76.75],[166.019417475728176,-76.75],[166.518723994452159,-76.75],[167.018030513176143,-76.75],[167.517337031900126,-76.75],[168.016643550624167,-76.75],[168.51595006934815,-76.75],[169.015256588072134,-76.75],[169.514563106796118,-76.75],[170.013869625520101,-76.75],[170.513176144244085,-76.75],[171.012482662968125,-76.75],[171.1,-76.75]]]}},
{"type":"Feature","properties":{"kind":"parallel","label":"76°30'S","value":-76.5},"geometry":{"type":"MultiLineString","coordinates":[[[161.4,-76.5],[161.52565880721221,-76.5],[162.024965325936193,-76.5],[162.524271844660177,-76.5],[163.023578363384217,-76.5],[163.522884882108201,-76.5],[164.022191400832185,-76.5],[164.521497919556168,-76.5],[165.020804438280152,-76.5],[165.520110957004192,-76.5],[166.019417475728176,-76.5],[166.518723994452159,-76.5],[167.018030513176143,-76.5],[167.517337031900126,-76.5],[168.016643550624167,-76.5],[168.51595006934815,-76.5],[169.015256588072134,-76.5],[169.514563106796118,-76.5],[170.013869625520101,-76.5],[170.513176144244085,-76.5],[171.012482662968125,-76.5],[171.1,-76.5]]]}},
{"type":"Feature","properties":{"kind":"parallel","label":"76°15'S","value":-76.25},"geometry":{"type":"MultiLineString","coordinates":[[[161.4,-76.25],[161.52565880721221,-76.25],[162.024965325936193,-76.25],[162.524271844660177,-76.25],[163.023578363384217,-76.25],[163.522884882108201,-76.25],[164.022191400832185,-76.25],[164.521497919556168,-76.25],[165.020804438280152,-76.25],[165.520110957004192,-76.25],[166.019417475728176,-76.25],[166.518723994452159,-76.25],[167.018030513176143,-76.25],[167.517337031900126,-76.25],[168.016643550624167,-76.25],[168.51595006934815,-76.25],[169.015256588072134,-76.25],[169.514563106796118,-76.25],[170.013869625520101,-76.25],[170.513176144244085,-76.25],[171.012482662968125,-76.25],[171.1,-76.25]]]}},
{"type":"Feature","properties":{"kind":"parallel","label":"76°S","value":-76.0},"geometry":{"type":"MultiLineString","coordinates":[[[161.4,-76.0],[161.52565880721221,-76.0],[162.024965325936193,-76.0],[162.524271844660177,-76.0],[163.023578363384217,-76.0],[163.522884882108201,-76.0],[164.022191400832185,-76.0],[164.521497919556168,-76.0],[165.020804438280152,-76.0],[165.520110957004192,-76.0],[166.019417475728176,-76.0],[166.518723994452159,-76.0],[167.018030513176143,-76.0],[167.517337031900126,-76.0],[168.016643550624167,-76.0],[168.51595006934815,-76.0],[169.015256588072134,-76.0],[169.514563106796118,-76.0],[170.013869625520101,-76.0],[170.513176144244085,-76.0],[171.012482662968125,-76.0],[171.1,-76.0]]]}},
{"type":"Feature","properties":{"kind":"parallel","label":"75°45'S","value":-75.75},"geometry":{"type":"MultiLineString","coordinates":[[[161.4,-75.75],[161.52565880721221,-75.75],[162.024965325936193,-75.75],[162.524271844660177,-75.75],[163.023578363384217,-75.75],[163.522884882108201,-75.75],[164.022191400832185,-75.75],[164.521497919556168,-75.75],[165.020804438280152,-75.75],[165.520110957004192,-75.75],[166.019417475728176,-75.75],[166.518723994452159,-75.75],[167.018030513176143,-75.75],[167.517337031900126,-75.75],[168.016643550624167,-75.75],[168.51595006934815,-75.75],[169.015256588072134,-75.75],[169.514563106796118,-75.75],[170.013869625520101,-75.75],[170.513176144244085,-75.75],[171.012482662968125,-75.75],[171.1,-75.75]]]}},
{"type":"Feature","properties":{"kind":"parallel","label":"75°30'S","value":-75.5},"geometry":{"type":"MultiLineString","coordinates":[[[161.4,-75.5],[161.52565880721221,-75.5],[162.024965325936193,-75.5],[162.524271844660177,-75.5],[163.023578363384217,-75.5],[163.522884882108201,-75.5],[164.022191400832185,-75.5],[164.521497919556168,-75.5],[165.020804438280152,-75.5],[165.520110957004192,-75.5],[166.019417475728176,-75.5],[166.518723994452159,-75.5],[167.018030513176143,-75.5],[167.517337031900126,-75.5],[168.016643550624167,-75.5],[168.51595006934815,-75.5],[169.015256588072134,-75.5],[169.514563106796118,-75.5],[170.013869625520101,-75.5],[170.513176144244085,-75.5],[171.012482662968125,-75.5],[171.1,-75.5]]]}},
{"type":"Feature","properties":{"kind":"parallel","label":"75°15'S","value":-75.25},"geometry":{"type":"MultiLineString","coordinates":[[[161.4,-75.25],[161.52565880721221,-75.25],[162.024965325936193,-75.25],[162.524271844660177,-75.25],[163.023578363384217,-75.25],[163.522884882108201,-75.25],[164.022191400832185,-75.25],[164.521497919556168,-75.25],[165.020804438280152,-75.25],[165.520110957004192,-75.25],[166.019417475728176,-75.25],[166.518723994452159,-75.25],[167.018030513176143,-75.25],[167.517337031900126,-75.25],[168.016643550624167,-75.25],[168.51595006934815,-75.25],[169.015256588072134,-75.25],[169.514563106796118,-75.25],[170.013869625520101,-75.25],[170.513176144244085,-75.25],[171.012482662968125,-75.25],[171.1,-75.25]]]}},
{"type":"Feature","properties":{"kind":"parallel","label":"75°S","value":-75.0},"geometry":{"type":"MultiLineString","coordinates":[[[161.4,-75.0],[161.52565880721221,-75.0],[162.024965325936193,-75.0],[162.524271844660177,-75.0],[163.023578363384217,-75.0],[163.522884882108201,-75.0],[164.022191400832185,-75.0],[164.521497919556168,-75.0],[165.020804438280152,-75.0],[165.520110957004192,-75.0],[166.019417475728176,-75.0],[166.518723994452159,-75.0],[167.018030513176143,-75.0],[167.517337031900126,-75.0],[168.016643550624167,-75.0],[168.51595006934815,-75.0],[169.015256588072134,-75.0],[169.514563106796118,-75.0],[170.013869625520101,-75.0],[170.513176144244085,-75.0],[171.012482662968125,-75.0],[171.1,-75.0]]]}},
{"type":"Feature","properties":{"kind":"parallel","label":"74°45'S","value":-74.75},"geometry":{"type":"MultiLineString","coordinates":[[[161.4,-74.75],[161.52565880721221,-74.75],[162.024965325936193,-74.75],[162.524271844660177,-74.75],[163.023578363384217,-74.75],[163.522884882108201,-74.75],[164.022191400832185,-74.75],[164.521497919556168,-74.75],[165.020804438280152,-74.75],[165.520110957004192,-74.75],[166.019417475728176,-74.75],[166.518723994452159,-74.75],[167.018030513176143,-74.75],[167.517337031900126,-74.75],[168.016643550624167,-74.75],[168.51595006934815,-74.75],[169.015256588072134,-74.75],[169.514563106796118,-74.75],[170.013869625520101,-74.75],[170.513176144244085,-74.75],[171.012482662968125,-74.75],[171.1,-74.75]]]}},
{"type":"Feature","properties":{"kind":"parallel","label":"74°30'S","value":-74.5},"geometry":{"type":"MultiLineString","coordinates":[[[161.4,-74.5],[161.52565880721221,-74.5],[162.024965325936193,-74.5],[162.524271844660177,-74.5],[163.023578363384217,-74.5],[163.522884882108201,-74.5],[164.022191400832185,-74.5],[164.521497919556168,-74.5],[165.020804438280152,-74.5],[165.520110957004192,-74.5],[166.019417475728176,-74.5],[166.518723994452159,-74.5],[167.018030513176143,-74.5],[167.517337031900126,-74.5],[168.016643550624167,-74.5],[168.51595006934815,-74.5],[169.015256588072134,-74.5],[169.514563106796118,-74.5],[170.013869625520101,-74.5],[170.513176144244085,-74.5],[171.012482662968125,-74.5],[171.1,-74.5]]]}},
{"type":"Feature","properties":{"kind":"meridian","label":"161°30'E","value":161.5},"geometry":{"type":"MultiLineString","coordinates":[[[161.5,-78.35],[161.5,-78.235294117647044],[161.5,-77.254901960784295],[161.5,-76.274509803921575],[161.5,-75.294117647058826],[161.5,-74.4]]]}},
{"type":"Feature","properties":{"kind":"meridian","label":"162°E","value":162.0},"geometry":{"type":"MultiLineString","coordinates":[[[162.0,-78.35],[162.0,-78.235294117647044],[162.0,-77.254901960784295],[162.0,-76.274509803921575],[162.0,-75.294117647058826],[162.0,-74.4]]]}},
{"type":"Feature","properties":{"kind":"meridian","label":"162°30'E","value":162.5},"geometry":{"type":"MultiLineString","coordinates":[[[162.5,-78.35],[162.5,-78.235294117647044],[162.5,-77.254901960784295],[162.5,-76.274509803921575],[162.5,-75.294117647058812],[162.5,-74.4]]]}},
{"type":"Feature","properties":{"kind":"meridian","label":"163°E","value":163.0},"geometry":{"type":"MultiLineString","coordinates":[[[163.0,-78.35],[163.0,-78.235294117647044],[163.0,-77.254901960784295],[163.0,-76.274509803921575],[163.0,-75.294117647058812],[163.0,-74.4]]]}},
{"type":"Feature","properties":{"kind":"meridian","label":"163°30'E","value":163.5},"geometry":{"type":"MultiLineString","coordinates":[[[163.5,-78.35],[163.5,-78.235294117647044],[163.5,-77.254901960784295],[163.5,-76.274509803921575],[163.5,-75.294117647058826],[163.5,-74.4]]]}},
{"type":"Feature","properties":{"kind":"meridian","label":"164°E","value":164.0},"geometry":{"type":"MultiLineString","coordinates":[[[164.0,-78.35],[164.0,-78.235294117647044],[164.0,-77.254901960784295],[164.0,-76.274509803921575],[164.0,-75.294117647058812],[164.0,-74.4]]]}},
{"type":"Feature","properties":{"kind":"meridian","label":"164°30'E","value":164.5},"geometry":{"type":"MultiLineString","coordinates":[[[164.5,-78.35],[164.5,-78.235294117647044],[164.5,-77.254901960784295],[164.5,-76.274509803921575],[164.5,-75.294117647058812],[164.5,-74.4]]]}},
{"type":"Feature","properties":{"kind":"meridian","label":"165°E","value":165.0},"geometry":{"type":"MultiLineString","coordinates":[[[165.0,-78.35],[165.0,-78.235294117647044],[165.0,-77.254901960784295],[165.0,-76.274509803921575],[165.0,-75.294117647058826],[165.0,-74.4]]]}},
{"type":"Feature","properties":{"kind":"meridian","label":"165°30'E","value":165.5},"geometry":{"type":"MultiLineString","coordinates":[[[165.5,-78.35],[165.5,-78.235294117647044],[165.5,-77.254901960784295],[165.5,-76.274509803921575],[165.5,-75.294117647058812],[165.5,-74.4]]]}},
{"type":"Feature","properties":{"kind":"meridian","label":"166°E","value":166.0},"geometry":{"type":"MultiLineString","coordinates":[[[166.0,-78.35],[166.0,-78.235294117647058],[166.0,-77.254901960784295],[166.0,-76.274509803921575],[166.0,-75.294117647058826],[166.0,-74.4]]]}},
{"type":"Feature","properties":{"kind":"meridian","label":"166°30'E","value":166.5},"geometry":{"type":"MultiLineString","coordinates":[[[166.5,-78.35],[166.5,-78.235294117647044],[166.5,-77.254901960784295],[166.5,-76.274509803921575],[166.5,-75.294117647058826],[166.5,-74.4]]]}},
{"type":"Feature","properties":{"kind":"meridian","label":"167°E","value":167.0},"geometry":{"type":"MultiLineString","coordinates":[[[167.0,-78.35],[167.0,-78.235294117647058],[167.0,-77.254901960784295],[167.0,-76.274509803921575],[167.0,-75.294117647058826],[167.0,-74.4]]]}},
{"type":"Feature","properties":{"kind":"meridian","label":"167°30'E","value":167.5},"geometry":{"type":"MultiLineString","coordinates":[[[167.5,-78.35],[167.5,-78.235294117647058],[167.5,-77.254901960784295],[167.5,-76.274509803921575],[167.5,-75.294117647058812],[167.5,-74.4]]]}},
{"type":"Feature","properties":{"kind":"meridian","label":"168°E","value":168.0},"geometry":{"type":"MultiLineString","coordinates":[[[168.0,-78.35],[168.0,-78.235294117647044],[168.0,-77.254901960784295],[168.0,-76.274509803921575],[168.0,-75.294117647058812],[168.0,-74.4]]]}},
{"type":"Feature","properties":{"kind":"meridian","label":"168°30'E","value":168.5},"geometry":{"type":"MultiLineString","coordinates":[[[168.5,-78.35],[168.5,-78.235294117647044],[168.5,-77.254901960784295],[168.5,-76.274509803921575],[168.5,-75.294117647058826],[168.5,-74.4]]]}},
{"type":"Feature","properties":{"kind":"meridian","label":"169°E","value":169.0},"geometry":{"type":"MultiLineString","coordinates":[[[169.0,-78.35],[169.0,-78.235294117647044],[169.0,-77.254901960784295],[169.0,-76.274509803921575],[169.0,-75.294117647058812],[169.0,-74.4]]]}},
{"type":"Feature","properties":{"kind":"meridian","label":"169°30'E","value":169.5},"geometry":{"type":"MultiLineString","coordinates":[[[169.5,-78.35],[169.5,-78.235294117647044],[169.5,-77.254901960784295],[169.5,-76.274509803921575],[169.5,-75.294117647058826],[169.5,-74.4]]]}},
{"type":"Feature","properties":{"kind":"meridian","label":"170°E","value":170.0},"geometry":{"type":"MultiLineString","coordinates":[[[170.0,-78.35],[170.0,-78.235294117647058],[170.0,-77.254901960784295],[170.0,-76.274509803921575],[170.0,-75.294117647058826],[170.0,-74.4]]]}},
{"type":"Feature","properties":{"kind":"meridian","label":"170°30'E","value":170.5},"geometry":{"type":"MultiLineString","coordinates":[[[170.5,-78.35],[170.5,-78.235294117647044],[170.5,-77.254901960784295],[170.5,-76.274509803921575],[170.5,-75.294117647058812],[170.5,-74.4]]]}},
{"type":"Feature","properties":{"kind":"meridian","label":"171°E","value":171.0},"geometry":{"type":"MultiLineString","coordinates":[[[171.0,-78.35],[171.0,-78.235294117647044],[171.0,-77.254901960784295],[171.0,-76.274509803921575],[171.0,-75.294117647058826],[171.0,-74.4]]]}}
]
}
