{
"type": "FeatureCollection",
"name": "points",
"crs": { "type": "name", "properties": { "name": "urn:ogc:def:crs:OGC:1.3:CRS84" } },
"features": [
{"type":"Feature","properties":{"osm_id":"40770706","name":"Baxter Creek","place":"neighbourhood"},"geometry":{"type":"Point","coordinates":[-111.1197182,45.7327167]}},
{"type":"Feature","properties":{"osm_id":"40793726","name":"Wylie Creek Estates","place":"neighbourhood"},"geometry":{"type":"Point","coordinates":[-111.1389651,45.7246176]}},
{"type":"Feature","properties":{"osm_id":"40981726","name":"Valley Grove","place":"neighbourhood"},"geometry":{"type":"Point","coordinates":[-111.1363096,45.7327313]}},
{"type":"Feature","properties":{"osm_id":"82765727","name":"Bozeman","place":"city","other_tags":"\"capital\"=>\"6\",\"name:en\"=>\"Bozeman\",\"name:ru\"=>\"Бозмен\",\"name:sr\"=>\"Боузман\",\"population\"=>\"53293\",\"population:date\"=>\"2020\",\"website\"=>\"https://www.bozeman.net/\",\"wikidata\"=>\"Q569678\",\"wikipedia\"=>\"en:Bozeman, Montana\""},"geometry":{"type":"Point","coordinates":[-111.044047,45.6794293]}},
{"type":"Feature","properties":{"osm_id":"150932819","name":"Kerns","place":"locality","other_tags":"\"gnis:feature_id\"=>\"802128\""},"geometry":{"type":"Point","coordinates":[-111.14467350000001,45.7115962]}},
{"type":"Feature","properties":{"osm_id":"150933446","name":"Matthews","place":"locality","other_tags":"\"gnis:feature_id\"=>\"773932\""},"geometry":{"type":"Point","coordinates":[-111.084393,45.6277079]}},
{"type":"Feature","properties":{"osm_id":"150937924","name":"Busch","place":"locality","other_tags":"\"gnis:feature_id\"=>\"780666\""},"geometry":{"type":"Point","coordinates":[-111.083004800000012,45.8035409]}},
{"type":"Feature","properties":{"osm_id":"150940300","name":"Cowan","place":"locality","other_tags":"\"gnis:feature_id\"=>\"802080\""},"geometry":{"type":"Point","coordinates":[-111.1852307,45.7235403]}},
{"type":"Feature","properties":{"osm_id":"150940352","name":"Patterson","place":"locality","other_tags":"\"gnis:feature_id\"=>\"775113\""},"geometry":{"type":"Point","coordinates":[-111.052169600000013,45.6279859]}},
{"type":"Feature","properties":{"osm_id":"150944047","name":"Greenwood","place":"hamlet","other_tags":"\"gnis:feature_id\"=>\"802115\""},"geometry":{"type":"Point","coordinates":[-111.2121759,45.6771512]}},
{"type":"Feature","properties":{"osm_id":"150946716","name":"Wisner Crossing","place":"locality","other_tags":"\"gnis:feature_id\"=>\"793443\""},"geometry":{"type":"Point","coordinates":[-111.0821714,45.7768743]}},
{"type":"Feature","properties":{"osm_id":"150948260","name":"Balmont","place":"locality","other_tags":"\"gnis:feature_id\"=>\"768490\""},"geometry":{"type":"Point","coordinates":[-111.1052271,45.6279855]}},
{"type":"Feature","properties":{"osm_id":"150948598","name":"Springhill","place":"hamlet","other_tags":"\"gnis:feature_id\"=>\"1743833\",\"population\"=>\"120\",\"population:date\"=>\"2020\",\"source:population\"=>\"US Census\",\"wikidata\"=>\"Q6133456\",\"wikipedia\"=>\"en:Springhill, Montana\""},"geometry":{"type":"Point","coordinates":[-111.0773137,45.8758174]}},
{"type":"Feature","properties":{"osm_id":"150950148","name":"Story","place":"hamlet","other_tags":"\"gnis:feature_id\"=>\"802206\""},"geometry":{"type":"Point","coordinates":[-111.082171300000013,45.7268745]}},
{"type":"Feature","properties":{"osm_id":"150950364","name":"Holland","place":"hamlet","other_tags":"\"gnis:feature_id\"=>\"772473\""},"geometry":{"type":"Point","coordinates":[-111.245233,45.7440954]}},
{"type":"Feature","properties":{"osm_id":"150950719","name":"West Gallatin","place":"locality","other_tags":"\"gnis:feature_id\"=>\"802236\""},"geometry":{"type":"Point","coordinates":[-111.218843,45.7027067]}},
{"type":"Feature","properties":{"osm_id":"150952834","name":"Camona","place":"locality","other_tags":"\"gnis:feature_id\"=>\"780834\""},"geometry":{"type":"Point","coordinates":[-111.081338100000011,45.7657633]}},
{"type":"Feature","properties":{"osm_id":"150965053","name":"Gilroy","place":"locality","other_tags":"\"gnis:feature_id\"=>\"771779\""},"geometry":{"type":"Point","coordinates":[-111.164951800000011,45.6599294]}},
{"type":"Feature","properties":{"osm_id":"150965558","name":"Gallatin Gateway","place":"village","other_tags":"\"gnis:feature_id\"=>\"783810\",\"population\"=>\"967\",\"population:date\"=>\"2020\",\"source:population\"=>\"US Census\",\"wikidata\"=>\"Q8963367\",\"wikipedia\"=>\"en:Gallatin Gateway, Montana\""},"geometry":{"type":"Point","coordinates":[-111.197416,45.5916111]}},
{"type":"Feature","properties":{"osm_id":"150970538","name":"Belgrade","place":"town","other_tags":"\"gnis:feature_id\"=>\"768673\",\"population\"=>\"12741\",\"population:date\"=>\"2024\",\"postal_code\"=>\"59714\",\"source:population\"=>\"US Census\",\"wikidata\"=>\"Q815570\",\"wikipedia\"=>\"en:Belgrade, Montana\""},"geometry":{"type":"Point","coordinates":[-111.1771685,45.776288]}},
{"type":"Feature","properties":{"osm_id":"150970550","name":"Atkins","place":"locality","other_tags":"\"gnis:feature_id\"=>\"779186\""},"geometry":{"type":"Point","coordinates":[-111.19717510000001,45.621318]}},
{"type":"Feature","properties":{"osm_id":"150971717","name":"Blackwood","place":"hamlet","other_tags":"\"gnis:feature_id\"=>\"769013\""},"geometry":{"type":"Point","coordinates":[-111.14550650000001,45.6418739]}},
{"type":"Feature","properties":{"osm_id":"150973549","name":"Edilou","place":"locality","other_tags":"\"gnis:feature_id\"=>\"771140\""},"geometry":{"type":"Point","coordinates":[-111.1966206,45.8788176]}},
{"type":"Feature","properties":{"osm_id":"2822030849","name":"South Meadow","place":"neighbourhood"},"geometry":{"type":"Point","coordinates":[-111.03411890000001,45.6465979]}},
{"type":"Feature","properties":{"osm_id":"4057342282","name":"Westlake Park","place":"neighbourhood"},"geometry":{"type":"Point","coordinates":[-111.1474113,45.7181701]}},
{"type":"Feature","properties":{"osm_id":"7866263864","name":"Brewery District","place":"neighbourhood"},"geometry":{"type":"Point","coordinates":[-111.0288108,45.6873794]}},
{"type":"Feature","properties":{"osm_id":"7866263871","name":"Valley West","place":"neighbourhood"},"geometry":{"type":"Point","coordinates":[-111.0988124,45.6811604]}},
{"type":"Feature","properties":{"osm_id":"7866263872","name":"Alder Creek","place":"neighbourhood"},"geometry":{"type":"Point","coordinates":[-111.0513332,45.6473482]}},
{"type":"Feature","properties":{"osm_id":"7866263873","name":"Harvest Creek","place":"neighbourhood"},"geometry":{"type":"Point","coordinates":[-111.0786614,45.6910114]}},
{"type":"Feature","properties":{"osm_id":"7866263874","name":"Oak Meadows","place":"neighbourhood"},"geometry":{"type":"Point","coordinates":[-111.0543688,45.6901923]}},
{"type":"Feature","properties":{"osm_id":"7866263875","name":"West Winds","place":"neighbourhood"},"geometry":{"type":"Point","coordinates":[-111.0773013,45.696784]}},
{"type":"Feature","properties":{"osm_id":"7866263876","name":"Flanders Mill","place":"neighbourhood"},"geometry":{"type":"Point","coordinates":[-111.0955935,45.6971931]}},
{"type":"Feature","properties":{"osm_id":"7866263877","name":"Baxter Meadows","place":"neighbourhood"},"geometry":{"type":"Point","coordinates":[-111.098250400000012,45.7021706]}},
{"type":"Feature","properties":{"osm_id":"7866263878","name":"Westbrook","place":"neighbourhood"},"geometry":{"type":"Point","coordinates":[-111.1091441,45.6874589]}},
{"type":"Feature","properties":{"osm_id":"7866263879","name":"The Lakes","place":"neighbourhood"},"geometry":{"type":"Point","coordinates":[-111.1145192,45.6839017]}},
{"type":"Feature","properties":{"osm_id":"7866263880","name":"Cattail Creek","place":"neighbourhood"},"geometry":{"type":"Point","coordinates":[-111.077574,45.7094303]}},
{"type":"Feature","properties":{"osm_id":"7866263881","name":"Babcock Meadows","place":"neighbourhood"},"geometry":{"type":"Point","coordinates":[-111.080328900000012,45.6769109]}},
{"type":"Feature","properties":{"osm_id":"7866263882","name":"Loyal Garden","place":"neighbourhood"},"geometry":{"type":"Point","coordinates":[-111.107168,45.6673379]}},
{"type":"Feature","properties":{"osm_id":"7866263883","name":"Southbridge","place":"neighbourhood"},"geometry":{"type":"Point","coordinates":[-111.0645381,45.6477362]}},
{"type":"Feature","properties":{"osm_id":"7866263884","name":"Meadow Creek","place":"neighbourhood"},"geometry":{"type":"Point","coordinates":[-111.073429800000014,45.6443744]}},
{"type":"Feature","properties":{"osm_id":"7866263885","name":"Sundance Springs","place":"neighbourhood"},"geometry":{"type":"Point","coordinates":[-111.03733,45.6379036]}},
{"type":"Feature","properties":{"osm_id":"7866263886","name":"Falcon Hollow","place":"neighbourhood"},"geometry":{"type":"Point","coordinates":[-111.1316156,45.6657234]}},
{"type":"Feature","properties":{"osm_id":"7866263887","name":"Woodland Park","place":"neighbourhood"},"geometry":{"type":"Point","coordinates":[-111.13734070000001,45.6667625]}},
{"type":"Feature","properties":{"osm_id":"7866263888","name":"Norton Ranch","place":"neighbourhood"},"geometry":{"type":"Point","coordinates":[-111.1136759,45.6771702]}},
{"type":"Feature","properties":{"osm_id":"7866263889","name":"Black Bull","place":"neighbourhood"},"geometry":{"type":"Point","coordinates":[-111.1556287,45.6887201]}},
{"type":"Feature","properties":{"osm_id":"7866263890","name":"Middle Creek Parklands","place":"neighbourhood"},"geometry":{"type":"Point","coordinates":[-111.164421600000011,45.6769772]}},
{"type":"Feature","properties":{"osm_id":"7866263891","name":"Creekwood","place":"neighbourhood"},"geometry":{"type":"Point","coordinates":[-111.0041353,45.7050441]}},
{"type":"Feature","properties":{"osm_id":"7866263892","name":"Legends","place":"neighbourhood"},"geometry":{"type":"Point","coordinates":[-111.0190879,45.7066701]}},
{"type":"Feature","properties":{"osm_id":"7866263893","name":"Headlands","place":"neighbourhood"},"geometry":{"type":"Point","coordinates":[-111.0143544,45.7012971]}},
{"type":"Feature","properties":{"osm_id":"7866263894","name":"Bridger Canyon","place":"neighbourhood"},"geometry":{"type":"Point","coordinates":[-110.97806150000001,45.7087064]}},
{"type":"Feature","properties":{"osm_id":"7866263895","name":"Laurel Glen","place":"neighbourhood"},"geometry":{"type":"Point","coordinates":[-111.116606,45.6894337]}},
{"type":"Feature","properties":{"osm_id":"8226859321","name":"Gran Cielo","place":"neighbourhood"},"geometry":{"type":"Point","coordinates":[-111.075496300000012,45.6507306]}},
{"type":"Feature","properties":{"osm_id":"8226859322","name":"Westfield","place":"neighbourhood"},"geometry":{"type":"Point","coordinates":[-111.0432173,45.6463021]}},
{"type":"Feature","properties":{"osm_id":"8226859323","name":"Hillcrest","place":"neighbourhood"},"geometry":{"type":"Point","coordinates":[-111.0222413,45.663307]}},
{"type":"Feature","properties":{"osm_id":"8226859324","name":"Painted Hills","place":"neighbourhood"},"geometry":{"type":"Point","coordinates":[-111.00901180000001,45.6495001]}},
{"type":"Feature","properties":{"osm_id":"8226859325","name":"Flanders Creek","place":"neighbourhood"},"geometry":{"type":"Point","coordinates":[-111.107414100000014,45.6911453]}},
{"type":"Feature","properties":{"osm_id":"8226859326","name":"Oak Springs","place":"neighbourhood"},"geometry":{"type":"Point","coordinates":[-111.088545700000012,45.6894159]}},
{"type":"Feature","properties":{"osm_id":"8226859327","name":"Durston Meadows","place":"neighbourhood"},"geometry":{"type":"Point","coordinates":[-111.072250200000013,45.6894976]}},
{"type":"Feature","properties":{"osm_id":"8226859328","name":"Brentwood","place":"neighbourhood"},"geometry":{"type":"Point","coordinates":[-111.065447400000011,45.6911724]}},
{"type":"Feature","properties":{"osm_id":"8226859329","name":"Mount Ellis Meadows","place":"neighbourhood"},"geometry":{"type":"Point","coordinates":[-110.98945830000001,45.6614262]}},
{"type":"Feature","properties":{"osm_id":"8226859330","name":"Spanish Meadows","place":"neighbourhood"},"geometry":{"type":"Point","coordinates":[-111.1719578,45.6983368]}},
{"type":"Feature","properties":{"osm_id":"8226859331","name":"Gallatin Heights","place":"neighbourhood"},"geometry":{"type":"Point","coordinates":[-111.1898836,45.7214677]}},
{"type":"Feature","properties":{"osm_id":"8226859332","name":"Four Corners","place":"village","other_tags":"\"population\"=>\"5901\",\"population:date\"=>\"2020\",\"source:population\"=>\"US Census\",\"wikidata\"=>\"Q961038\",\"wikipedia\"=>\"en:Four Corners, Montana\""},"geometry":{"type":"Point","coordinates":[-111.18571,45.671227]}},
{"type":"Feature","properties":{"osm_id":"8534935346","name":"Prescott Ranch","place":"neighbourhood"},"geometry":{"type":"Point","coordinates":[-111.1958932,45.7989741]}},
{"type":"Feature","properties":{"osm_id":"8573707767","name":"River Rock","place":"neighbourhood"},"geometry":{"type":"Point","coordinates":[-111.2170512,45.7767426]}},
{"type":"Feature","properties":{"osm_id":"8650400098","name":"Elk Grove","place":"neighbourhood"},"geometry":{"type":"Point","coordinates":[-111.1814447,45.6423485]}},
{"type":"Feature","properties":{"osm_id":"9033431544","name":"Ferguson Farm","place":"neighbourhood"},"geometry":{"type":"Point","coordinates":[-111.1015007,45.6728699]}},
{"type":"Feature","properties":{"osm_id":"9033431545","name":"Bozeman Gateway","place":"neighbourhood"},"geometry":{"type":"Point","coordinates":[-111.0814114,45.6694418]}},
{"type":"Feature","properties":{"osm_id":"9203424505","name":"Cooper Park","place":"neighbourhood"},"geometry":{"type":"Point","coordinates":[-111.0473242,45.6739622]}},
{"type":"Feature","properties":{"osm_id":"9203424506","name":"South Black","place":"neighbourhood"},"geometry":{"type":"Point","coordinates":[-111.0357787,45.6738197]}},
{"type":"Feature","properties":{"osm_id":"9203424507","name":"Downtown","place":"neighbourhood"},"geometry":{"type":"Point","coordinates":[-111.038620400000013,45.6792446]}},
{"type":"Feature","properties":{"osm_id":"9203424508","name":"Main Street","place":"neighbourhood"},"geometry":{"type":"Point","coordinates":[-111.033303100000012,45.6792757]}},
{"type":"Feature","properties":{"osm_id":"9203424509","name":"Gallatin Center","place":"neighbourhood"},"geometry":{"type":"Point","coordinates":[-111.069037200000011,45.7121668]}},
{"type":"Feature","properties":{"osm_id":"9203424510","name":"Riverside","place":"neighbourhood"},"geometry":{"type":"Point","coordinates":[-111.0663392,45.7291445]}},
{"type":"Feature","properties":{"osm_id":"9203424511","name":"Summer Ridge","place":"neighbourhood"},"geometry":{"type":"Point","coordinates":[-111.0475528,45.7536917]}},
{"type":"Feature","properties":{"osm_id":"9203424512","name":"Spirit Hills","place":"neighbourhood"},"geometry":{"type":"Point","coordinates":[-111.056525,45.7561955]}},
{"type":"Feature","properties":{"osm_id":"9203424513","name":"Wheatland Hills","place":"neighbourhood"},"geometry":{"type":"Point","coordinates":[-111.0681495,45.7562366]}},
{"type":"Feature","properties":{"osm_id":"9203424514","name":"Harvest Hills","place":"neighbourhood"},"geometry":{"type":"Point","coordinates":[-111.0356794,45.7575568]}},
{"type":"Feature","properties":{"osm_id":"9203424515","name":"Mountain View","place":"neighbourhood"},"geometry":{"type":"Point","coordinates":[-111.108383,45.7456537]}},
{"type":"Feature","properties":{"osm_id":"9203424516","name":"Galactic Park","place":"neighbourhood"},"geometry":{"type":"Point","coordinates":[-111.2024925,45.676397]}},
{"type":"Feature","properties":{"osm_id":"9203434317","name":"Cougar Park","place":"neighbourhood"},"geometry":{"type":"Point","coordinates":[-111.15615,45.6689444]}},
{"type":"Feature","properties":{"osm_id":"9249938803","name":"Triple Tree","place":"neighbourhood"},"geometry":{"type":"Point","coordinates":[-111.0098263,45.6164546]}},
{"type":"Feature","properties":{"osm_id":"9249938804","name":"Gardner Park","place":"neighbourhood"},"geometry":{"type":"Point","coordinates":[-111.0269872,45.6388353]}},
{"type":"Feature","properties":{"osm_id":"9249938805","name":"Kirk","place":"neighbourhood"},"geometry":{"type":"Point","coordinates":[-111.0636189,45.6766254]}},
{"type":"Feature","properties":{"osm_id":"9249938807","name":"Bridger Creek","place":"neighbourhood"},"geometry":{"type":"Point","coordinates":[-111.0272338,45.7080787]}},
{"type":"Feature","properties":{"osm_id":"9249938808","name":"Gallatin Park","place":"neighbourhood"},"geometry":{"type":"Point","coordinates":[-111.042641,45.706967]}},
{"type":"Feature","properties":{"osm_id":"9249938809","name":"Farwestern","place":"neighbourhood"},"geometry":{"type":"Point","coordinates":[-111.073376700000011,45.6808187]}},
{"type":"Feature","properties":{"osm_id":"9249938810","name":"Ferguson Meadows","place":"neighbourhood"},"geometry":{"type":"Point","coordinates":[-111.0875556,45.68248]}},
{"type":"Feature","properties":{"osm_id":"9249938811","name":"Pleasant Valley","place":"neighbourhood"},"geometry":{"type":"Point","coordinates":[-111.0808193,45.6819931]}},
{"type":"Feature","properties":{"osm_id":"9249938812","name":"Valley Creek","place":"neighbourhood"},"geometry":{"type":"Point","coordinates":[-111.0880144,45.6759643]}},
{"type":"Feature","properties":{"osm_id":"9249938813","name":"King Arthur Park","place":"village","other_tags":"\"population\"=>\"1549\",\"population:date\"=>\"2020\",\"source:population\"=>\"US Census\",\"wikidata\"=>\"Q5959816\",\"wikipedia\"=>\"en:King Arthur Park, Montana\""},"geometry":{"type":"Point","coordinates":[-111.1254311,45.6676708]}},
{"type":"Feature","properties":{"osm_id":"9249938814","name":"Hyalite Foothills","place":"neighbourhood"},"geometry":{"type":"Point","coordinates":[-111.090565,45.5827388]}},
{"type":"Feature","properties":{"osm_id":"9249938815","name":"Hyalite View","place":"neighbourhood"},"geometry":{"type":"Point","coordinates":[-111.0667678,45.602299]}},
{"type":"Feature","properties":{"osm_id":"9249938816","name":"Crossroads","place":"neighbourhood"},"geometry":{"type":"Point","coordinates":[-111.0521838,45.6052535]}},
{"type":"Feature","properties":{"osm_id":"9249941017","name":"Hyalite Heights","place":"neighbourhood"},"geometry":{"type":"Point","coordinates":[-111.0575209,45.6165682]}},
{"type":"Feature","properties":{"osm_id":"9249941018","name":"Sourdough Hills","place":"neighbourhood"},"geometry":{"type":"Point","coordinates":[-111.025252,45.6311411]}},
{"type":"Feature","properties":{"osm_id":"9249941019","name":"Foothills","place":"neighbourhood"},"geometry":{"type":"Point","coordinates":[-111.0241988,45.6474279]}},
{"type":"Feature","properties":{"osm_id":"9249941020","name":"Apollo","place":"neighbourhood"},"geometry":{"type":"Point","coordinates":[-111.058336700000012,45.6719272]}},
{"type":"Feature","properties":{"osm_id":"9249941021","name":"Bridger Lake Meadows","place":"neighbourhood"},"geometry":{"type":"Point","coordinates":[-111.0877681,45.7690464]}},
{"type":"Feature","properties":{"osm_id":"9249941022","name":"Spain Bridge Meadows","place":"neighbourhood"},"geometry":{"type":"Point","coordinates":[-111.0873444,45.779993]}},
{"type":"Feature","properties":{"osm_id":"9249941023","name":"Saddle Peak Ranch","place":"neighbourhood"},"geometry":{"type":"Point","coordinates":[-111.045776,45.7794711]}},
{"type":"Feature","properties":{"osm_id":"9249941024","name":"Buffalo Creek","place":"neighbourhood"},"geometry":{"type":"Point","coordinates":[-111.0572393,45.7971002]}},
{"type":"Feature","properties":{"osm_id":"9249941025","name":"Grandview Heights","place":"neighbourhood"},"geometry":{"type":"Point","coordinates":[-111.0131487,45.7436551]}},
{"type":"Feature","properties":{"osm_id":"9249941026","name":"Meadowlark Ranch","place":"neighbourhood"},"geometry":{"type":"Point","coordinates":[-111.139091,45.7894053]}},
{"type":"Feature","properties":{"osm_id":"9249941027","name":"Ryen Glenn Estates","place":"neighbourhood"},"geometry":{"type":"Point","coordinates":[-111.1504167,45.7966347]}},
{"type":"Feature","properties":{"osm_id":"9249941028","name":"Las Campanas","place":"neighbourhood"},"geometry":{"type":"Point","coordinates":[-111.171419500000013,45.7662064]}},
{"type":"Feature","properties":{"osm_id":"9249941029","name":"Bluegrass Meadows","place":"neighbourhood"},"geometry":{"type":"Point","coordinates":[-111.1310245,45.6510712]}},
{"type":"Feature","properties":{"osm_id":"9249941030","name":"Mystic Heights","place":"neighbourhood"},"geometry":{"type":"Point","coordinates":[-111.05000170000001,45.5947281]}},
{"type":"Feature","properties":{"osm_id":"9249941031","name":"Hyalite Meadow","place":"neighbourhood"},"geometry":{"type":"Point","coordinates":[-111.091774500000014,45.5997604]}},
{"type":"Feature","properties":{"osm_id":"9249941032","name":"Bear Canyon","place":"neighbourhood"},"geometry":{"type":"Point","coordinates":[-110.9426928,45.641703]}},
{"type":"Feature","properties":{"osm_id":"9262013795","name":"Hyalite Canyon","place":"neighbourhood"},"geometry":{"type":"Point","coordinates":[-111.0786517,45.584886]}},
{"type":"Feature","properties":{"osm_id":"9262013799","name":"Peakview","place":"neighbourhood"},"geometry":{"type":"Point","coordinates":[-111.1914909,45.6059697]}},
{"type":"Feature","properties":{"osm_id":"9262013800","name":"Belgrade Gardens","place":"neighbourhood"},"geometry":{"type":"Point","coordinates":[-111.208691800000011,45.7977313]}},
{"type":"Feature","properties":{"osm_id":"9262013801","name":"Vista Meadows","place":"neighbourhood"},"geometry":{"type":"Point","coordinates":[-111.2193419,45.8005525]}},
{"type":"Feature","properties":{"osm_id":"9262013802","name":"Landmark","place":"neighbourhood"},"geometry":{"type":"Point","coordinates":[-111.2201485,45.7940345]}},
{"type":"Feature","properties":{"osm_id":"9262013803","name":"4-Dot Meadows","place":"neighbourhood"},"geometry":{"type":"Point","coordinates":[-111.2432516,45.8150951]}},
{"type":"Feature","properties":{"osm_id":"9262013804","name":"Springvale","place":"neighbourhood"},"geometry":{"type":"Point","coordinates":[-111.0995625,45.7782046]}},
{"type":"Feature","properties":{"osm_id":"9946458981","name":"Midtown","place":"neighbourhood"},"geometry":{"type":"Point","coordinates":[-111.0462397,45.6887134]}},
{"type":"Feature","properties":{"osm_id":"9946458982","name":"Story Mill","place":"neighbourhood"},"geometry":{"type":"Point","coordinates":[-111.02800640000001,45.6967099]}},
{"type":"Feature","properties":{"osm_id":"9946458983","name":"Stadium Center","place":"neighbourhood"},"geometry":{"type":"Point","coordinates":[-111.054093400000014,45.6593608]}},
{"type":"Feature","properties":{"osm_id":"9946458984","name":"Southwood","place":"neighbourhood"},"geometry":{"type":"Point","coordinates":[-111.038318600000011,45.6608593]}},
{"type":"Feature","properties":{"osm_id":"9946458985","name":"Northeast","place":"neighbourhood"},"geometry":{"type":"Point","coordinates":[-111.0623079,45.7013537]}},
{"type":"Feature","properties":{"osm_id":"9946458986","name":"East Main","place":"neighbourhood"},"geometry":{"type":"Point","coordinates":[-111.018039300000012,45.6783158]}},
{"type":"Feature","properties":{"osm_id":"9946458987","name":"College","place":"neighbourhood"},"geometry":{"type":"Point","coordinates":[-111.0691249,45.6726934]}},
{"type":"Feature","properties":{"osm_id":"10211316020","name":"Blackwood Groves","place":"neighbourhood"},"geometry":{"type":"Point","coordinates":[-111.0571886,45.6433201]}},
{"type":"Feature","properties":{"osm_id":"10585041720","name":"North Tracy Avenue","place":"neighbourhood"},"geometry":{"type":"Point","coordinates":[-111.037375,45.6844843]}},
{"type":"Feature","properties":{"osm_id":"10655843342","name":"Westridge","place":"neighbourhood"},"geometry":{"type":"Point","coordinates":[-111.041868400000013,45.6555626]}},
{"type":"Feature","properties":{"osm_id":"10655843343","name":"South Tracy Avenue","place":"neighbourhood"},"geometry":{"type":"Point","coordinates":[-111.037476700000013,45.6690306]}},
{"type":"Feature","properties":{"osm_id":"10655843344","name":"Lindley Place","place":"neighbourhood"},"geometry":{"type":"Point","coordinates":[-111.0330475,45.6762241]}},
{"type":"Feature","properties":{"osm_id":"10655843347","name":"Village Downtown","place":"neighbourhood"},"geometry":{"type":"Point","coordinates":[-111.022128200000012,45.6817745]}},
{"type":"Feature","properties":{"osm_id":"10679259640","name":"Montana State University","place":"neighbourhood"},"geometry":{"type":"Point","coordinates":[-111.052112900000012,45.6673511]}},
{"type":"Feature","properties":{"osm_id":"10679259641","name":"Bon Ton","place":"neighbourhood"},"geometry":{"type":"Point","coordinates":[-111.043575600000011,45.6672772]}},
{"type":"Feature","properties":{"osm_id":"10679259642","name":"Main Street","place":"neighbourhood"},"geometry":{"type":"Point","coordinates":[-111.179634400000012,45.7775665]}},
{"type":"Feature","properties":{"osm_id":"10679259645","name":"Eastedge Meadows","place":"neighbourhood"},"geometry":{"type":"Point","coordinates":[-111.0095837,45.6721833]}},
{"type":"Feature","properties":{"osm_id":"10679259670","name":"Lake","place":"neighbourhood"},"geometry":{"type":"Point","coordinates":[-111.099306,45.7318841]}},
{"type":"Feature","properties":{"osm_id":"10679259671","name":"Sunny Acres","place":"neighbourhood"},"geometry":{"type":"Point","coordinates":[-111.0833139,45.7456486]}},
{"type":"Feature","properties":{"osm_id":"10679259678","name":"Rainbow","place":"neighbourhood"},"geometry":{"type":"Point","coordinates":[-111.1935521,45.6528259]}},
{"type":"Feature","properties":{"osm_id":"10679259679","name":"Northstar","place":"neighbourhood"},"geometry":{"type":"Point","coordinates":[-111.1925472,45.679272]}},
{"type":"Feature","properties":{"osm_id":"10679259680","name":"Remington","place":"neighbourhood"},"geometry":{"type":"Point","coordinates":[-111.0629207,45.6622675]}},
{"type":"Feature","properties":{"osm_id":"10679259681","name":"Arrowleaf Hills","place":"neighbourhood"},"geometry":{"type":"Point","coordinates":[-110.9971447,45.6518489]}},
{"type":"Feature","properties":{"osm_id":"10679259682","name":"Meadowbrook","place":"neighbourhood"},"geometry":{"type":"Point","coordinates":[-111.122277200000013,45.6625083]}},
{"type":"Feature","properties":{"osm_id":"10679259683","name":"Diamond Estates","place":"neighbourhood"},"geometry":{"type":"Point","coordinates":[-111.0960043,45.6896094]}},
{"type":"Feature","properties":{"osm_id":"10679259684","name":"Springhill","place":"neighbourhood"},"geometry":{"type":"Point","coordinates":[-111.0665203,45.7344243]}},
{"type":"Feature","properties":{"osm_id":"12519302905","name":"White Horse Ranch","place":"neighbourhood"},"geometry":{"type":"Point","coordinates":[-111.1475681,45.6970014]}},
{"type":"Feature","properties":{"osm_id":"12519302906","name":"Creekside","place":"neighbourhood"},"geometry":{"type":"Point","coordinates":[-111.1622274,45.6969979]}},
{"type":"Feature","properties":{"osm_id":"12519302969","name":"West Post","place":"neighbourhood"},"geometry":{"type":"Point","coordinates":[-111.1695793,45.756435]}},
{"type":"Feature","properties":{"osm_id":"12522309300","name":"Ashton Meadows","place":"neighbourhood"},"geometry":{"type":"Point","coordinates":[-111.2057578,45.8056911]}},
{"type":"Feature","properties":{"osm_id":"12543222845","name":"Northwest Crossing","place":"neighbourhood"},"geometry":{"type":"Point","coordinates":[-111.106501400000013,45.6966717]}},
{"type":"Feature","properties":{"osm_id":"13613172078","name":"Dry Creek, Montana","place":"hamlet"},"geometry":{"type":"Point","coordinates":[-111.196667,45.8752926]}}
]
}
